website,name,addressLocality,streetAddress,postalCode,mail
,dieWEG Verwaltung Frank Wido Schulz e.K.,Berlin-Lichterfelde,Drakestr. 16B,12205,
http://www.muzi-berlin.de,Muzi - Immobilien & Hausverwaltung,Berlin-Wilmersdorf,Bundesallee 213-214,10719,info@muzi-berlin.de
http://www.haus-bau-management.de,Steinhöfel Günter,Panketal-Zepernick,Brennerstr. 14,16341,g.st@haus-bau-management.de
http://www.hvgruender.de,Häuserverwaltung Gründer oHG,Berlin-Wilmersdorf,Sigmaringer Str. 24,10713,info@hvgruender.de
http://www.upmeier-wohnungsbau.de,"Upmeier, Dr.",Berlin-Zehlendorf,Mexikoplatz 4,14163,info@upmeier-wohnungsbau.de
http://www.hv-wilhelm-gmbh.de,Wilhelm GmbH Karl-Heinz,Berlin-Charlottenburg,Joachimsthaler Str. 21,10719,info@hv-wilhelm-gmbh.de
http://www.a-von-leitner.de,Leitner & Co. Immobilien GmbH A. v.,Berlin-Lichterfelde,Kadettenweg 7,12205,info@a-von-leitner.de
http://www.ekon-hausverwaltung.de,ekon Hausverwaltung GmbH,Berlin-Lichterfelde-West,Potsdamer Str. 37,12205,
http://www.hvdehmel.de,Dehmel,Berlin-Steglitz,Karl-Stieler-Str. 9,12167,mail@hvdehmel.de
http://www.treichel.berlin,Treichel & Treichel Immobilienberatung,Berlin-Grunewald,Koenigsallee 39,14193,treichel@treichel.berlin
http://www.vitec-berlin.de,Vitec Immobilien-Management und Consulting GmbH,Berlin-Moabit,Stromstr. 47,10551,info@vitec-berlin.de
,Casa Immobilien GmbH,Berlin-Wilmersdorf,Paulsborner Str. 74,10709,
http://www.von-stocki.de,Hausverwaltung von Stocki GmbH,Berlin-Grunewald,Toni-Lessler-Str. 2,14193,info@von-stocki.de
http://www.praezisa.com,PRÄZISA Immobilien GmbH & Co. Verwaltungs KG,Berlin-Wilmersdorf,Bundesallee 177,10717,info@praezisa.com
http://www.immobiliengesellschaft-berlin.de,A. Hübener Immobilien & Hausverwaltung,Berlin-Friedrichshagen,Bölschestr. 77,12587,
http://www.heim-und-industriebau.de,Heim- und Industriebau Betreuungs- u. Verwaltungsgesellschaft mbH,Berlin-Lichterfelde,Finckensteinallee 141,12205,
,Alscher Brigitte,Berlin-Adlershof,Selchowstr. 31,12489,
http://www.wvg-berlin.de,Wohnungs Verwaltungs GmbH - WVG,Berlin-Wilmersdorf,Konstanzer Str. 6,10707,schuch@wvg-berlin.de
http://www.meyerimmobilien.de,Meyer Hausverwaltung UG Klaus-Peter,Berlin,,,kontakt@meyerhausverwaltung.berlin
http://www.plurahi.de,Plura Haus und Immobilien GmbH,Berlin-Lichterfelde,Ostpreußendamm 44,12207,info@plurahi.de
http://www.luxel-hausverwaltung.de,Luxel Hausverwaltung,Berlin-Lankwitz,Malteserstr. 107,12249,luxel@t-online.de
http://hv-activa.de,Activa Grundstücksverwaltungs GmbH,Berlin-Lichterfelde,Zimmerstr. 11,12207,info@hv-activa.de
http://www.fuewa.eu,Füwa Hausverwaltung GmbH,Berlin-Lichterfelde,Ostpreußendamm 177,12207,hausverwaltung@fuewa.eu
,Schulz Herbert K.,Berlin-Lichterfelde,Drakestr. 16B,12205,schulzhausverwaltung@web.de
http://www.kuperion.de,Kuperion Grundstücksgesellschaft mbH,Berlin-Charlottenburg,Wilmersdorfer Str. 39,10627,info@kuperion.de
,Wobetzky Hausverwaltung,Berlin-Spandau,Dörbeckweg 18,13591,hausverwaltung@wobetzky.de
http://www.achat-hv.de,Achat Haus- und Grundstücksverwaltung GmbH,Berlin-Prenzlauer Berg,Chodowieckistr. 12/II,10405,info@achat-hv.de
http://www.mende-grundbesitz.de,Mende Grundbesitzverwaltungs GmbH,Berlin-Charlottenburg,Kurfürstendamm 61,10707,info@mende-grundbesitz.de
,Berlinicke Erben Liegenschaftsver.,Berlin-Lankwitz,Kaulbachstr. 33-35,12247,
http://www.bonafide-immo.de,Bona Fide Immobilien,Berlin-Schmargendorf,Schellendorffstr. 20,14199,bonafide-immobilien@t-online.de
http://www.concept-immobilien-roeske.de,C.O.N.C.E.P.T Immobilien,Berlin-Lichtenrade,Potsdamer Str. 34,12305,info@concept-immobilien.net
http://www.wobege.de,WoBeGe mbH,Berlin-Johannisthal,Winckelmannstr. 3-5,12487,info@wobege.de
http://www.kyffhaeuser-immobilien.de,Kyffhäuser GmbH & Co Verwaltungs KG,Berlin-Charlottenburg,Niebuhrstr. 10,10629,info@kyffhaeuser-immobilien.de
http://www.oehmcke-immobilien.de,Oehmcke Immobilien,Berlin-Köpenick,Grünauer Str. 6,12557,immo@oehmcke.eu
http://www.praezisa.com,PRÄZISA,Berlin-Wilmersdorf,Bundesallee 199,10717,info@praezisa.com
,Wiese & Co. oHG Ernst,Berlin-Wilmersdorf,Meinekestr. 13,10719,info@ernst-wiese.de
http://www.kleiss-hausverwaltungen.de,Kleiß Albrecht,Berlin-Grunewald,Hagenstr. 31a,14193,info@hvkleiss.berlin
http://www.namos-gmbh.de,NAMOS Verwaltungs-Immobilien GmbH,Berlin-Friedrichshain,Ehrenbergstr. 20,10245,info@namos-gmbh.de
http://www.hausverwaltung-naumann.de,Naumann Immobilien GmbH Carola,Berlin-Steglitz,Arno-Holz-Str. 16,12165,
http://www.rimos.eu,R IMO S Hausverwaltung GmbH,Berlin-Charlottenburg,Knesebeckstr. 91,10623,info@rimos.eu
http://www.l-will.de,"Will + Partner Immobilienservice GmbH, L.",Berlin-Spandau,Seeburger Str. 77,13581,info@l-will.de
http://www.juergen-wolf-immobilien.de,Wolf Jürgen,Berlin-Dahlem,Waltraudstr. 1,14169,info@juergen-wolf-immobilien.de
http://www.confidentia-consulting.de,confidentia consulting GmbH,Berlin-Buckow,,12351,info@confidentia-consulting.de
http://www.walter-loll.de,Loll oHG Walter,Berlin-Charlottenburg,Knesebeckstr. 30,10623,info@walter-loll.de
http://www.herbert-hamel.de,Hamel Grundstücksverwaltungen Immobilien GmbH Herbert,Berlin-Wilmersdorf,Nassauische Str. 3,10717,
http://www.hausverwaltung-herr.de,Herr - v. Mioduski A.,Berlin-Dahlem,Fabeckstr. 38,14195,
http://www.ihage.de,IHaGe Hausverwaltung GmbH,Berlin-Charlottenburg,Dernburgstr. 59,14057,
,Komorowski Marina,Berlin-Konradshöhe,Falkenhorststr. 11,13505,
,Manthei,Berlin-Moabit,Helgoländer Ufer 5,10557,info@hv-manthei.de
,Pogade Peggy,Berlin-Lankwitz,Calandrellistr. 59d,12247,peggy.pogade@alice-dsl.de
,"Arndt, Bruno, Inh. Jörg-Rüdiger Arndt e.K.",Berlin-Spandau,Stresowplatz 3,13597,
,Hopke - Haus & Grundstücksverwaltung GmbH,Berlin-Moabit,Wilhelmshavener Str. 63,10551,
http://www.hausverwaltung-stutzmann.de,Stutzmann,Berlin-Mitte,Ackerstr. 9,10115,hausverwaltung-stutzmann@web.de
http://www.kroll-immo.de,Kroll,Berlin-Pankow,Mühlenstr. 71,13187,kroll.immo@berlin.de
http://www.hausverwaltung-piechowski-berlin.de,Piechowski,Berlin-Spandau,Falkenhagener Str. 32A,13585,info@sp-ug.de
http://wohnbau-commerz.de/,Wohnbau-Commerz GmbH & Co. Bautreuhand KG,Berlin-Charlottenburg,Joachimsthaler Str. 14,10719,info@wohnbau-commerz.de
http://www.hausverwaltung.acker9.de,Zeplin Immobilien GmbH,Berlin-Mitte,Ackerstr. 9,10115,hausverwaltung@acker9.de
,B & F,,,,
http://www.a-bis-z.com,A-bis-Z Hausverwaltung,Berlin,,,info@a-bis-z.com
,Hauf-Grundbesitz GmbH,Berlin-Friedenau,Albestr. 30,12159,hauf-hv@t-online.de
,Immo-Plan Hausverwaltungs- und Baubetreuungs GmbH,Berlin-Halensee,Katharinenstr. 19,10711,info@immo-plan-berlin.de
,Meyer Ingrid,Berlin-Lichterfelde,Ringstr. 96A,12203,im.immobilien@t-online.de
,Ernst Wiese & Co. oHG,,,,info@ernst-wiese.de
,Kaiser Karl-Heinz,Berlin-Dahlem,Ehrenbergstr. 5,14195,karl-heinzkaiser@t-online.de
http://www.hv-piechowski.de,"Piechowski GmbH, Klaus",Berlin-Treptow,Rinkartstr. 3,12437,
,Andersohn-Hausverwaltung,Berlin-Wedding,Brüsseler Str. 48,13353,
,ARMINIA Immobilien u. Industriev. GmbH,Berlin-Britz,Pätzer Str. 2,12359,
,Inter-Real Grundstücks-GmbH,Berlin-Charlottenburg,Carmerstr. 6,10623,
,PARAT Grundstücksverwaltung GmbH,Berlin-Westend,Reichsstr. 5,14052,
,Reeck Sascha,Berlin-Kreuzberg,Freiligrathstr. 13,10967,
,Schorratz I.,Berlin-Spandau,Groenerstr. 16,13585,
,Eckstein C.,Berlin-Rudow,Lakenfelder Weg 8,12355,
,Fa. Fred Janke,Berlin-Hermsdorf,Olafstr. 17,13467,
,Hänel,Berlin-Zehlendorf,Breisgauer Str. 35,14129,
http://www.bfb.de,BB-Verwalter,,,,
http://hv-bg.de,Hausverwaltung B&G,Berlin-Wilmersdorf,Aachener Str. 44,10713,
http://www.promeda.de,Promeda Hausverwaltung GmbH,Berlin-Pankow,Schonensche Str. 9,10439,
,Baumgart Klaus Reinigungsservice,Berlin-Reinickendorf,Granatenstr. 2,13409,
,Mietinvest KG Grundstücksverwaltung,Berlin-Halensee,Nestorstr. 8,10709,
http://www.hhv.info,Hersperger Hausverwaltung,Berlin-Moabit,Jagowstr. 13,10555,
http://www.mpw-immobilien.de,MPW1 Immobilienverwaltung GmbH Haus- und Grundstücksverwaltung,Berlin-Köpenick,Ernst-Grube-Str. 1,12555,
http://www.agilius.eu,Agilius Liegenschaftsverwaltungs GmbH,Berlin-Tegel,Brunowstr. 6,13507,
http://www.heide-grundbesitz.de,Haus- und Grundbesitzverwaltung Heide,Berlin-Schmargendorf,Hundekehlestr. 35,14199,
http://www.vista-venture-ag.de,Hausverwaltung Vista Venture AG,Berlin-Friedrichsfelde,Rhinstr. 1,10315,
http://www.rbb-immo.de,RBB Immobilien-Verwaltungs-Gesellschaft mbH Haus- und Grundstücksverwaltungen,Berlin-Wilmersdorf,Mansfelder Str. 56.,10709,
,AIM Verwaltungsgesellschaft mbH Haus- und Grundstücksverwaltungen,Berlin-Halensee,Kurfürstendamm 138,10711,
http://www.gotthal.de/,Büro Gotthal Verwaltungsgesellschaft für Wohnungseigentum mbH Berlin,Berlin-Charlottenburg,Am Bahnhof Westend 2,14059,
,Wohnungsverwaltungsgesellschaft Altglienicke Schönefeld GbR,Berlin-Altglienicke,Schönefelder Chaussee 213,12524,
http://www.beckerundkries.de,Becker & Kries Immobilien Management GmbH & Co. KG Haus- und Grundstücksverwaltungen,Berlin-Charlottenburg,Meinekestr. 25,10719,
,Centre' Haus u. Grundbesitz Verwaltungs GmbH Hausverwaltung,Berlin-Zehlendorf,Bergengruenstr. 26,14129,
http://tallinas.de,Tallinas Hausverwaltung GmbH,Berlin-Borsigwalde,Breitenbachstr. 10,13509,
http://www.berliner-haeuser.de,BHVG Berliner Häuser Verwaltungs GmbH,Berlin-Mitte,Wöhlertstr. 12-13,10115,
http://www.askanisches-quartier.de,Askanisches Quartier GmbH Hausverwaltung,Berlin-Mitte,Neue Grünstr. 27,10179,
http://www.livingbauhaus.de/,cic group Immobilienprojektentwicklungsgesellschaft mbH Hausverwaltung,Berlin-Mitte,Hausvogteiplatz 14,10117,
http://www.schwarzer-gruppe.de,Schwarzer-Gruppe Unternehmensgruppe Haus- und Grundstücksverwaltung,Berlin-Halensee,Kurfürstendamm 137,10711,
,Bredemeier Hausverwaltung,Berlin-Mariendorf,Gersdorfstr. 60,12105,
,Kaul Dörthe,Berlin-Spandau,Hasenmark 6,13585,
http://www.ambiente-gmbh.eu,Ambiente Immobilienverwaltung GmbH Immobilien,Berlin-Grünau,Büxensteinallee 24,12527,
http://www.schwarzer-hausverwaltung.de,Schwarzer Haus- & Grundstücksverwaltung,Berlin-Halensee,Kurfürstendamm 137,10711,
http://www.condominia-berlin.de,Condominia Hausverwaltung Berlin UG (haftungsbeschränkt) Hausverwaltung,Berlin-Prenzlauer Berg,Am Friedrichshain 22,10407,
http://www.fds-hausverwaltung.de,FDS Gewerbebetriebsgesellschaft mbH der Fürst Donnersmarck-Stiftung Immobilien,Berlin-Lankwitz,Amalienstr. 14,12247,
http://www.hv-walter.de,Walter Thomas,Berlin-Reinickendorf,Humannstr. 27,13403,
http://www.nikolay-immobilien.de,C. Nikolay Immobilien GmbH Hausverwaltung,Berlin-Schöneberg,Hauptstr. 108,10827,
http://www.fgv-berlin.de/,Francke?sche Grundstücksverwaltung GmbH,Berlin-Kreuzberg,Kreuzbergstr. 28,10965,
http://www.gvnordost.de/berlin.html,GV Nordost Verwaltungsgesellschaft mbH,Berlin-Gesundbrunnen,Prinzenallee 89,13357,
http://www.haagen-group.de,HGV Haagen Haus- u. Grundstücksverwaltung KG,Berlin-Wilmersdorf,Duisburger Str. 5,10707,
,Last Hausverwaltung & Immobilien GmbH,Berlin-Tegel,Schlieperstr. 17,13507,
http://www.a-c-behrendt.de,Behrendt Artur Caesar Hausverwaltungen GmbH Hausverwaltung,Berlin-Charlottenburg,Kurfürstendamm 37,10719,
http://www.bima-gmbh.de/,BIMA Geschäftsführungs- und Verwaltungsgesellschaft mbH,Berlin-Charlottenburg,Sybelstr. 32,10629,
http://www.siriusfacilities.com/de/business-parks/standort/berlin-mahlsdorf/beschreibung,Business Park Berlin-Mahlsdorf,Berlin-Mahlsdorf,Landsberger Str. 217- 267,12623,
http://www.hausverwaltung-duckwitz.de,Duckwitz Ulrich Hausverwaltung,Berlin-Reinickendorf,Rorschacher Zeile 5B,13407,
http://www.gebb-berlin.de,GEBB Gesellschaft für Berlin-Brandenburg mbH Immobilien,Berlin-Zehlendorf,Anhaltiner Str. 2A,14163,
http://www.hauskonzept-berlin.de,Hauskonzept Hetzer & Helms GmbH Hausverwaltung,Berlin-Schöneberg,Else-Lasker-Schüler-Str. 22,10783,
http://www.hv-bogner.de,HVB Haus- und Grundstücksverwaltung Hans-Jörg Bogner Haus- und Grundstücksverwaltung,Berlin-Lichtenberg,Josef-Orlopp-Str. 32-36,10365,
http://www.maikowskialscher.de,maikowski & alscher Grundstücksverwaltung,Berlin-Schöneberg,Motzstr. 65,10777,
http://www.marktblick.com,Marktblick Gesellschaft für Hausverwaltung mbH Haus- und Grundstücksverwaltungen,Berlin-Kreuzberg,Zimmerstr. 26,10969,
http://www.scharfenberg-partner.de,S & C Properties Germany UG (haftungsbeschränkt) Immobilien,Berlin-Steglitz,Poschingerstr. 13,12157,
http://schik-versichert.de,SCHIK Finanzdienstleistungen & Hausverwaltung,Berlin-Wilmersdorf,Grainauer Str. 12,10777,
http://www.seidel-immo.de,Seidel Immobilien Hausverwaltung,Berlin-Charlottenburg,Kaiserdamm 16,14057,
http://www.sorgertec.de,SorgerTec Hausverwaltung AG Haus- und Grundstücksverwaltungen,Berlin-Friedenau,Hauptstr. 92-93,12159,
http://www.walkowicz.de,Wilhelm Hilpert Hausverwaltung GmbH Haus- und Grundstücksverwaltung,Berlin-Friedrichshain,Mühlenstr. 35,10243,
http://www.hausverwaltung-achterberg.de,Achterberg Renate Hausverwaltung,Berlin-Lichterfelde,Jägerstr. 12,12209,
http://www.b-e-hausverwaltung.de,B & E Immobiliar - Verwaltung GmbH,Berlin-Friedrichshain,Ebelingstr. 13A,10249,
https://home.immobilienscout24.de/29JNU/content/40774,B. Philipp Hausverwaltungs GmbH,Berlin-Dahlem,Clayallee 64,14195,
http://www.berlincasa.de/,berlincasa hausverwaltung,Berlin-Lichterfelde,Jungfernstieg 9,12207,
http://www.cramer-treuhand.de,Dr.Peter Cramer Treuhandgesellschaft für Immobilien mbH & Co. KG,Berlin-Mitte,Luisenstr. 41,10117,
http://www.hv-feldhaus.de,Feldhaus Inh. Franz-Josef Feldhaus Hausverwaltung,Berlin-Moabit,Wiclefstr. 23,10551,
http://www.flagg-hv.de,FLAGG Hausverwaltung GmbH,Berlin-Mitte,Schumannstr. 2,10117,
http://www.grobla.de,Grobla Immobilien- und Bürodienstleistungen,Berlin-Zehlendorf,Beerenstr. 43,14163,
http://www.hveggertkanold.de,Kim Eggert und Eckard Kanold Gbr,Berlin-Schöneberg,Bessemerstr. 24,12103,
http://www.meterhoch2.de/,Meterhoch2! Hausverwaltungen GmbH Immobilienbetreuung,Berlin-Halensee,Schwarzbacher Str. 3,10711,
http://www.mischke-partner.de,Mischke & Partner GmbH Haus- und Grundstücksverwaltungen,Berlin-Schmargendorf,Hohenzollerndamm 99,14199,
http://www.nonesgmbh.com,Nones GmbH,Berlin-Schöneberg,Feurigstr. 54,10827,
http://www.object-s.de,Object.S Haus-& Grundstücksservice,Berlin-Köpenick,Glienicker Str. 61A,12557,
http://www.immo-piepenburg.de,Piepenburg Marion Hausverwaltung,Berlin-Mitte,Bergstr. 77,10115,
http://www.popp-weg.de,Popp Yvonne Wohnungseigentumsverwaltung,Berlin-Kreuzberg,Böckhstr. 48,10967,
http://hausverwaltung-schenker.de,Schenker Sylvia Hausverwaltung,Berlin-Karlshorst,Ehrlichstr. 26,10318,
http://www.shk-immobilien.de,SHK Hausverwaltung GmbH Haus- und Grundstücksverwaltung,Berlin-Schmargendorf,Breite Str. 20,14199,
http://www.stadtart-hausverwaltung.de,StadtArt Hausverwaltung GmbH Grundstücksverwaltung,Berlin-Wilmersdorf,Landhausstr. 31,10717,
http://www.stang-hausverwaltung.de,STANG Hausverwaltung Berlin,Berlin-Grünau,Waldvogelweg 10,12527,
http://www.universa-hv.de,Universa Hausverwaltungsgesellschaft mbH Hausverwaltung,Berlin-Schöneberg,Kleiststr. 3-6,10787,
http://www.wewa-immobilien.de/,WeWa Immobilien-Management GmbH Hausverwaltung,Berlin-Reinickendorf,Kienhorststr. 53,13403,
http://www.wgbg.de,WGBG Wirtschafts-Genossenschaft Berliner Grundbesitzer eG,Berlin-Wilmersdorf,Mainzer Str. 13,10715,
,Belvedere Vermögensverwaltung GmbH & Co. Liegenschaften KG Grundstücksverwaltung,,Konstanzer Str. 6,,
http://www.rekla-gmbh.de,rekla Dienstleistungs Ges. mbH,Berlin-Friedenau,Albestr. 26,12159,
http://www.hausverwaltung-zimmer.de,Zimmer-Hausverwaltung Inh. Thomas u. Janine Zimmer GbR Hausverwaltungen,Berlin-Kladow,Kreutzwaldstr. 10A,14089,
http://www.hgv-vigor.de,Haus- und Grundstücksverwaltung GmbH - Vigor,Berlin-Fennpfuhl,Möllendorffstr. 43,10367,
http://www.agewo.de,AGEWO Allgemeine Wohn- und Gewerbeimmobilien Verwaltungsgesellschaft mbH Grundstücksverwaltung,Berlin-Schöneberg,Wartburgstr. 48,10823,
http://www.berlin-projekte.de/,"Berlin Projekte, Brigitte Kattusch Hausverwaltung",Berlin-Wedding,Amsterdamer Str. 19,13347,
,Gerber Norbert Technische Hausverwaltung,Berlin-Lichtenrade,Geibelstr. 50,12305,
,"Hausverwaltung Peters, Inh. Frank Pachur",Berlin-Mariendorf,Schützenstr. 14,12105,
http://www.levy-hv.de/,LEVY GbR Hausverwaltung,Berlin-Pankow,Selma-Lagerlöf-Str. 4,13189,
http://www.massih-hausverwaltung.de,Massih Mamaly Grundstück- und Verwaltungsgesellschaft,Berlin-Charlottenburg,Knesebeckstr. 55,10719,
,Sasse Hausverwaltungen und Grundstücksvermittlung GmbH,Berlin-Wilhelmstadt,Wendenweg 16,13595,
http://www.spezialbau-spandau.de/,Spezialbau Spandau Tarnowski GmbH & Co. Haus- und Grundstücksverwaltungen,Berlin-Wilmersdorf,Xantener Str. 14,10707,
,Tarkus Gebäudemanagement Haus- und Grundstücksverwaltung,Berlin-Kreuzberg,Blücherstr. 37a,10961,
,vic GmbH viable investment concepts,Berlin-Prenzlauer Berg,Stargarder Str. 45,10437,
,Bandomir Hausverwaltung,Berlin-Spandau,Elsflether Weg 31,13581,
,Fischer Helmut,Berlin-Friedrichshain,Weichselstr. 5,10247,
,Graf & Partner Grundstücksverwaltungs GmbH,Berlin-Buchholz,Pasewalker Str. 90,13127,
,Grundstücksgesellschaft Tauernallee GbR,Berlin-Mariendorf,Tauernallee 37,12107,
,Hanseatische Berlin Kontor GmbH,Berlin-Mitte,Torstr. 222,10115,
,Herrenhaus und Schlösser Verwaltungs GmbH,Berlin-Heinersdorf,Tiniusstr. 9-11,13089,
,Keseberg Harald Hausverwaltung,Berlin-Britz,Britzer Damm 106,12347,
,Kuhl Peter Hausverwaltungen und Immobilien,Berlin-Lichterfelde,Steinäckerstr. 28,12205,
,Roloff Horst Hausverwaltung,Berlin-Kreuzberg,Nostitzstr. 30,10965,
,Schmidt Ute Hausverwaltung,Berlin-Lichterfelde,Zimmerstr. 13A,12207,
,Schulz-Aden Treuhand- und Beteiligungs GmbH,Berlin-Halensee,Storkwinkel 4,10711,
,Weber Hausverwaltung,Berlin-Buckow,Parksiedlung Spruch 82,12349,
,Woelki Hausverwaltung Inh. Daniela Schnabel,Berlin-Charlottenburg,Savignyplatz 9,10623,
,Wohlfarth Von Alm Horst Hausverwaltung,Berlin-Charlottenburg,Wilmersdorfer Str. 104,10629,
,Zografski Ivan Hausverwaltung,Berlin-Charlottenburg,Lewishamstr. 1,10629,
http://www.hermes-hausverwaltung-ag.de,Hermes Hausverwaltung GmbH Hausverwaltung,Berlin-Kreuzberg,Wilhelmstr. 124,10963,
http://www.admina.de,Admina GmbH Hausverwaltung,Berlin-Moabit,Alt-Moabit 60,10555,
http://www.allod.de,allod Immobilien- und Vermögensverwaltungsges. mbH & Co. KG,Berlin-Marienfelde,Culemeyerstr. 2,12277,
http://www.bhv-verwaltung.de,Bayerische Hausbau Immobilien Management GmbH Haus- und Grundstückverwaltung,Berlin-Charlottenburg,Hardenbergplatz 2,10623,
,BBB GmbH,Berlin-Wilmersdorf,Prinzregentenstr. 73,10715,
,Besler Annette Hausverwaltung,Berlin-Prenzlauer Berg,Eberswalder Str. 30,10437,
,BICO Grundstücks GmbH Haus- und Grundstücksverwaltungen,Berlin-Lichtenberg,Frankfurter Allee 272,10317,
,Borch Marion Hausverwaltung,Berlin-Steglitz,Grabertstr. 9A,12169,
,Bree-Siebel Immobilien Hausverwaltung Versicherung,Berlin-Schmargendorf,Hammersteinstr. 12,14199,
,Dolle Hausverwaltung,Berlin-Schöneberg,Motzstr. 9,10777,
,Foelske Hausverwaltung Haus- und Grundstücksverwaltung,Berlin-Zehlendorf,Argentinische Allee 3,14163,
,GeVGe Ges. f. d. Verwaltung v. Grundbes. u. Immob. mbH Haus- und Grundstücksverwaltung,Berlin-Mitte,Koppenplatz 10,10115,
,Gottwalt Karl Hausverwaltung,Berlin-Falkenhagener Feld,Seegefelder Str. 217,13583,
,Götz Werner R. Dipl.-Ing. Haus- und Grundstücksverwaltung,Berlin-Wilmersdorf,Wittelsbacherstr. 16,10707,
,Härdtl Ingeborg Grundstücksverwaltung,Berlin-Charlottenburg,Mommsenstr. 22,10629,
,Harke u. Vorwerk GbR,Berlin-Kreuzberg,Erkelenzdamm 59,10999,
,Hausverwaltung Jacob GmbH,Berlin-Steglitz,Schorlemerallee 8,14195,
,Hausverwaltungsgesellschaft mbH Sabine Schäfer,Berlin-Wilmersdorf,Hohenzollerndamm 10,10717,
,Henkel Manfred Hausverwaltung,Berlin-Friedenau,Wiesbadener Str. 12,12161,
,HIG Hausverwaltung Immobilien-vermittlung und Gebäudes. GmbH,Berlin-Marzahn,Blumberger Damm 152,12685,
,HMS Verwaltung Jens Schulze,Berlin-Charlottenburg,Wielandstr. 18,10629,
,IPI Hausverwaltung,Berlin-Schmargendorf,Warmbrunner Str. 43,14193,
,Kanold Eckard und Eggert Kim GbR,Berlin-Friedrichshain,Gärtnerstr. 7,10245,
,Kober Eberhard Hausverwaltung,Berlin-Falkenhagener Feld,Kleinreuther Weg 21,13587,
,Kuhl Ingrid Hausverwaltung,Berlin-Lichtenrade,Wünsdorfer Str. 94,12307,
,Lehmann Hans-Joachim Hausverwaltung,Berlin-Wilmersdorf,Berliner Str. 19,10715,
,"Loepert OHG, Christa Hausverwaltung",Berlin-Halensee,Westfälische Str. 32,10709,
,Meudtner Haus- und Grundstücksverwaltungs GmbH,Berlin-Tempelhof,Alarichstr. 9,12105,
,OMNI Hausverwaltung GmbH,Berlin-Schmargendorf,Hohenzollerndamm 99,14199,
,Panther Sabine Hausverwaltung,Berlin-Zehlendorf,Spanische Allee 23,14129,
,Prowerk,Berlin-Köpenick,Ekhofplatz 3,12557,
http://www.rw-immobilien.de/,R & W Immobilienanlagen GmbH Haus- und Grundstücksverwaltungen,Berlin-Kreuzberg,Dessauer Str. 28,10963,
,Runge & Popp GmbH Haus- u. WohneigentumsVerw.,Berlin-Lichterfelde,Willdenowstr. 44,12203,
,Satzer Margarete Hausverwaltung,Berlin-Friedrichshain,Frankfurter Allee 41,10247,
,Scholz Michael und Volker Muscate GbR Hausverwaltung,Berlin-Westend,Kaiserdamm 85,14057,
,"Schütrumpf, Günter u. Sylvia Hausverwaltung",Berlin-Zehlendorf,Johannesstr. 5,14165,
,Schwemmer Jürgen Dr. Hausverwaltung,Berlin-Frohnau,Edelhofdamm 37,13465,
,Stenzel Thomas Hausverwaltung,Berlin-Schöneberg,Hohenstaufenstr. 32,10779,
,Stiller Heike Hausverwaltung,Berlin-Zehlendorf,Machnower Str. 23,14165,
,Träger Sabrina Hausverwaltung,Berlin-Kreuzberg,Forster Str. 6,10999,
,Werdauer Weg 3 Grundstücksverwaltungs GmbH & Co. KG,Berlin-Schöneberg,Werdauer Weg 3,10829,
,Woelki Grundstücksverwaltung,Berlin-Friedrichshain,Petersburger Str. 68,10249,
,Worch Violetta Hausverwaltung,Berlin-Reinickendorf,Amendestr. 21,13409,
http://www.trusthouse.de,Trusthouse GmbH Haus- und Grundstücksverwaltung,Berlin-Charlottenburg,Leibnizstr. 69,10625,
http://www.adura-concept.com,ADURA Concept GmbH & Co. KG Haus- und Grundstücksverwaltung,Berlin-Charlottenburg,Kurfürstendamm 44,10719,
http://www.anton-schmittlein.de,Anton Schmittlein Construction GmbH,Berlin-Tiergarten,Burggrafenstr. 3,10787,
http://www.arkus-online.de,Arkus Haus- und Grundstücksverwaltungs GmbH,Berlin-Kreuzberg,Dudenstr. 34,10965,
http://www.bgv-berlin.de/,Berliner Gesellschaft für Vermögensverwaltung mbH Haus- und Grundstücksverwaltungen,Berlin-Mitte,Französische Str. 9-12,10117,
http://www.berlinhaus.de,Berlinhaus Verwaltung GmbH Hausverwaltung,Berlin-Kreuzberg,Friedrichstr. 30,10969,
http://www.borger-partner.de,Borger & Partner GmbH Hausverwaltung,Berlin-Friedenau,Bornstr. 5,12163,
http://www.conforma.de,Conforma Immobilien-Management GmbH Haus- und Grundstücksverwaltungen,Berlin-Kladow,Birlingerweg 11,14089,
http://www.cotrac-hausverwaltungen.de,Cotrac Liegenschaften & Hausverwaltungen GmbH Grundstücksverwaltung,Berlin-Mariendorf,Mariendorfer Damm 330,12107,
http://www.irisgerd.de/,Irisgerd Grundbesitz Verwaltungs GmbH Immobilien,Berlin-Grunewald,Lassenstr. 11,14193,
http://www.willy-brandt-haus.de,Verwaltungsgesellschaft Bürohaus Berlin mbH Willy-Brandt-Haus,Berlin-Kreuzberg,Wilhelmstr. 140,10963,
http://www.vkp-berlin.de/,Verwaltungsgesellschaft VKP Kapitzky & Herbst mbH Hausverwaltung,Berlin-Charlottenburg,Bismarckstr. 97-98,10625,
,Hamelow Karsten Hausverwaltung,Berlin-Charlottenburg,Danckelmannstr. 21,14059,
,Trittel Hausverwaltung,Berlin-Friedrichshain,Pettenkoferstr. 15,10247,
http://www.bw-berlin.com,Büro Weißenborn GmbH Haus- und Grundstücksverwaltungen,Berlin-Schöneberg,Großgörschenstr. 15,10829,
http://www.schoenundsever.de,Schön & Sever Hausverwaltungs GmbH,Berlin-Friedenau,Bundesallee 89,12161,
http://www.dr-hintze.com,"Hintze & Co. Immobilien Management OHG, Dr. Hausverwaltung",Berlin-Zehlendorf,Anhaltinerstr. 2A,14163,
http://www.pik-hausverwaltung.de/,PIK Partner Immobilien Konzept GmbH Haus- und Grundstücksverwaltung,Berlin-Prenzlauer Berg,Driesener Str. 16,10439,
http://www.privata-hausverwaltung.de,Privata Hausverwaltung GmbH Haus- und Grundstücksverwaltung,Berlin-Neukölln,Hertzbergstr. 30,12055,
http://www.dantec.de,Dantec Haus- u. Grundbesitzverwaltungs GmbH,Berlin-Schmargendorf,Hohenzollerndamm 99,14199,
,Verwaltung Berliner Grundstücke GmbH Haus- und Grundstücksverwaltungen,Berlin-Kreuzberg,Schlesische Str. 29-30,10997,
,Wolf Christian Immobilien,Berlin-Rudow,Kappenstr. 4,12357,
,"Lantz-Immo.Com, Inh. Martina Lantz Hausverwaltung",Berlin-Steglitz,Elisenstr. 5,12169,
,Adam & Setzefand GmbH Haus- und Grundstücksverwaltungen,Berlin-Lichtenrade,Lichtenrader Damm 42- 44,12305,
http://www.eukia-hausverwaltung.de/berlin.htm,EUKIA Vermietungs- und Verwaltungs GmbH Hausverwaltung,Berlin-Mitte,Ohmstr. 1,10179,
,complete Gebäude- und Büroservice GmbH,Berlin-Wannsee,Seylerstr. 5,14109,
,DAIROS Property Management GmbH,Berlin-Tiergarten,Schillstr. 9,10785,
,G-Force Property Services UG (haftungsbeschränkt) Haus- und Grundstücksverwaltung,Berlin-Tiergarten,Schillstr. 9,10785,
http://www.gfwob.de,GfWOB Gesell. f. Wohnungsverw. und Objektbetreuung mbH,Berlin-Alt-Hohenschönhausen,Landsberger Allee 267,13055,
,KG Bayerische Hausbauvertr. d. Bay. Immobilienverw. GmbH Haus- und Grundstücksverwaltungen,Berlin-Mitte,Hannoversche Str. 9,10115,
http://www.gartenstadt-atlantic.de,Gartenstadt Atlantic AG Haus- und Grundstücksverwaltung,Berlin-Gesundbrunnen,Bellermannstr. 22,13357,
http://www.hausverwaltung-haenel.de,Hänel Anett Hausverwaltung & Immobilien,Berlin-Steglitz,Erlenstr. 20,12167,
http://www.kuk-objektservice-gebäudemanagement.de,K & K Objektservice und Gebäudemanagement GmbH Haus- und Grundstücksverwaltung,Berlin-Karlshorst,Treskowallee 106,10318,
,Berag Beratungs- u. Betreuungsges. für Grundstücks- u. Gebäudewirtschaft mbH,Berlin-Mitte,Friedrichstr. 95,10117,
,Beta-Roseneck Hausverwaltungs GmbH,Berlin-Schmargendorf,Marienbader Str. 13,14199,
,David Andreas Hausverwaltung,Berlin-Lankwitz,Elisabethstr. 9,12247,
,Glatzer Claudia Hausverwaltung,Berlin-Wedding,Togostr. 13,13351,
,Haus- u. Grundstücksverwaltung Cornelia Westland GmbH,Berlin-Oberschöneweide,An der Wuhlheide 232A,12459,
,J.Schröder & Co.GmbH Hausverwaltung,Berlin-Prenzlauer Berg,Heinrich-Roller-Str. 26,10405,
,Reinken,Berlin-Spandau,Am Schlangengraben 9,13597,
http://www.abc-hausverwaltungen.de,ABC Hausverwaltungen GmbH,Berlin-Halensee,Kurfürstendamm 125A,10711,
http://www.hv-adiuvare.de/,Adiuvare Grundbesitzbetreuung GmbH Hausverwaltung,Berlin-Steglitz,Sedanstr. 13,12167,
http://www.aedes.de,Aedés Haus- und Grundstücksverwaltung GmbH,Berlin-Weißensee,Smetanastr. 16,13088,
http://www.mielau-immobilien.de,Andreas Mielau & Partner GbR Haus- und Grundstücksverwaltung,Berlin-Heiligensee,Alt-Heiligensee 84,13503,
http://www.areal-service.com,AREAL Service GmbH Hausverwalter,Berlin-Weißensee,Berliner Allee 79,13088,
http://www.avial.com,Avial Clienting GmbH Haus- und Grundstücksverwaltungen,Berlin-Mitte,Luisenstr. 45,10117,
http://www.awodi.de,AWoDi Altstädt wohnungswirtschaftliche Dienstleistungen Haus- und Grundstücksverwaltungen,Berlin-Tempelhof,Friedrich-Franz-Str. 39,12103,
http://www.verwaltung-behrend.de,"Behrend Wohnungsverwaltung GmbH, Frank",Berlin-Lichtenrade,Mellener Str. 59,12307,
http://www.bgv-berlin.de,BGV Berliner Gesellschaft für Vermögensverwaltung mbH,Berlin-Wilmersdorf,Cicerostr. 27,10709,
http://www.boden-immobilien.de,Boden Immobilien Hausverwaltung,Berlin-Lichterfelde,Reichensteiner Weg 20,14195,
http://www.sylter-stranddecke.de,"Both, Henriette & Christiane Trüper Haus- und Grundstücksverwaltungen",Berlin-Grunewald,Frischlingsteig 5a,14195,
http://www.gvdaehne.de,Dähne Grundstücksverwaltung,Berlin-Rudow,Prierosser Str. 71,12355,
http://www.dfmg.de,DFMG Deutsche Funkturm GmbH Regionalvertretung,Berlin-Lichtenberg,Buchberger Str. 4-12,10365,
http://www.difendo.de,Difendo Hausverwaltung GmbH,Berlin-Baumschulenweg,Heidekampweg 21,12437,
http://www.div-berlin.de,DIV-Deutsche Immobilien Verwaltung GmbH Haus- und Grundstücksverwaltungen,Berlin-Friedrichshain,Boxhagener Str. 119,10245,
http://www.gwko.de,G.W.Ko.Grundbesitz und Wirtschaftskontor KG Haus- und Grundstücksverwaltung,Berlin-Prenzlauer Berg,Danziger Str. 7,10435,
http://www.gwz-salzufer.de,"Gewerbezentrum Salzufer 13,14 GmbH & Co.",Berlin-Charlottenburg,Salzufer 13-14,10587,
http://www.gwa-verwaltung.de,GWA Gesellschaft für Wartung und Verwaltung von Gebäuden mbH Haus- und Grundstücksverwaltungen,Berlin-Steglitz,Holsteinische Str. 11,12163,
http://www.hauschild.info,Hauschild Haus- & Grundstücksverwaltungsgesellschaft mbH,Berlin-Halensee,Markgraf-Albrecht-Str. 2,10711,
http://hvp-berlin.de/,Hausverwaltung Am Prenz'l e.K.,Berlin-Prenzlauer Berg,Kollwitzstr. 46,10405,
http://www.hausverwaltung-buchhaltung.de,Hausverwaltung & Buchhaltung Berlin Brandenburg Hausverwaltung,Berlin-Friedrichshagen,Fürstenwalder Damm 544,12587,
http://www.hetzer-immobilien.de,Hetzer Immobilien GmbH,Berlin-Mariendorf,Mariendorfer Damm 161A,12107,
http://www.hausverwaltung-hinzpeter.de,Hinzpeter Thomas Immobilien,Berlin-Charlottenburg,Helmholtzstr. 2-9,10587,
http://www.hvsg-berlin.de,HVSG Marzahner Tor GmbH Hausverwaltung,Berlin-Marzahn,Märkische Allee 210A,12679,
http://www.peters-hv.de,Knut Peters Hausverwaltungen GmbH Haus- und Grundstücksverwaltungen,Berlin-Charlottenburg,Kurfürstendamm 184,10707,
http://www.kl-dienstleistungengmbh.de,Kreutz & Lapinova Dienstleistungs GmbH,Berlin-Mitte,Torstr. 195,10115,
http://www.ksi-hausverwaltung.de,KSI GmbH Hausverwaltung,Berlin-Köpenick,Möllhausenufer 16,12557,
http://www.kubatur-berlin.de,Kubatur Hausverwaltung GmbH,Berlin-Wilmersdorf,Bundesplatz 14,10715,
http://www.kuphal-immobilien.de,Kuphal Gunnar Dipl.-Ing. Haus- und Grundstücksverwaltungen,Berlin-Wilmersdorf,Sigmaringer Str 22,10713,
http://www.dagmar-kurth.de,Kurth Dagmar Grundstücksverwaltung,Eichwalde,Am Graben 38,15732,
http://www.hg-langbein.de,Langbein Marco Haus u.Grundstücksbetreuung,Berlin-Haselhorst,Romy-Schneider-Str. 1,13599,
http://www.lebensraum-hv.de,Lebensraum Hausverwaltungs GmbH Hausverwaltung,Berlin-Mitte,Inselstr. 10,10179,
http://www.live-hausverwaltung.de,"LI.VE Hausverwaltung, Inh. Sandra Linke",Berlin-Charlottenburg,Knesebeckstr. 98A,10623,
http://www.hausverwaltung-montag.de,Montag Tanja Hausverwaltung,Berlin-Lichterfelde,Dürerstr. 31,12203,
http://www.rec-hausverwaltung.de,Real Estate Corporation GmbH,Berlin-Mitte,Anklamer Str. 27,10115,
http://www.schela-hausverwaltung.de,Schela Hausverwaltungs- GmbH,Berlin-Köpenick,Bahnhofstr. 11,12555,
http://www.schwabia.de,Schwabia Immobilienverwaltung GmbH Immobilien,Berlin-Zehlendorf,Herbergerweg 11,14167,
http://www.berlinhausverwaltung.com,Sillah Susanne Haus- u. Grundstücksverwaltung,Berlin-Lichterfelde,Knesebeckstr. 10,12205,
http://www.terra-fonds.de,Terra-Fonds Grundstücksverwaltungsges. mbH,Berlin-Grunewald,Bornimer Str. 6,10711,
http://www.valad.de,Valad Germany GmbH Haus- und Grundstücksverwaltung,Berlin-Mitte,Friedrichstr. 76,10117,
http://www.valida-gmbh.de,Valida Grundbesitzverwaltungs GmbH Haus- und Grundstücksverwaltungen,Berlin-Steglitz,Hubertusstr. 13,12163,
http://www.hausverwaltung-weinkamm.de,Weinkamm Tyrit Hausverwaltung,Berlin-Lichterfelde,Gardeschützenweg 96,12203,
http://www.wotum.de,Wotum Gesellschaft für Wohnungseigentum mbH Haus- und Grundstücksverwaltungen,Berlin-Mitte,Heinrich-Heine-Str. 62A,10179,
,Junck Hausverwaltung,Berlin,,13467,
http://www.1-berlin-x.de,1 Berlin x Unternehmensgruppe,Berlin-Grunewald,Lynarstr. 1,14193,
http://www.alme-berlin.de,A.L.M.E. Grundstücksverwaltung GmbH,Berlin-Charlottenburg,Danckelmannstr. 40,14059,
http://www.addomum.de,ADDOMUM Immobilien Management GmbH Haus- und Grundstücksverwaltungen,Berlin-Spandau,Jüdenstr. 26,13597,
http://www.agena-grund.de,AGENA Grundbesitz Management GmbH Haus- und Grundstücksverwaltung,Berlin-Schöneberg,Bayreuther Str. 7,10787,
http://www.hv-agon.de,AGON Hausverwaltung S. Philipp e. K. Haus- und Grundstücksverwaltungen,Berlin-Prenzlauer Berg,Gaudystr. 2,10437,
http://www.allee-berlin.de,Allee Hausverwaltung und Immobilien GmbH Makler für Immobilien,Berlin-Baumschulenweg,Forsthausallee 4,12437,
http://www.aristo-verwaltung.de,ARISTO Verwaltung von Haus und Grundbesitz GmbH Haus- und Grundstücksverwaltungen,Berlin-Mitte,Wallstr. 86,10179,
http://www.artvivendi-immobilien.de,ARTvivendi Wohnungs- u. Grundstücksverwaltungsgesellschaft mbH Hausverwaltung,Berlin-Prenzlauer Berg,John-Schehr-Str. 4,10407,
http://www.bemondo-immobilien.de,Bemondo Immobilien,Berlin-Buckow,Auf der Planweide 23c,12353,
http://www.benea-berlin.de,BENEA. Verwaltung von Immobilien Hausverwaltung,Berlin-Tegel,Berliner Str. 41,13507,
http://www.bersulin.de,Bersulin Baugesellschaft mbH Haus- und Grundstücksverwaltung,Berlin-Wilmersdorf,Bundesallee 181,10717,
http://www.hausverwaltung-bodenbach.de,Bodenbach Hausverwaltung GmbH,Berlin-Waidmannslust,Waidmannsluster Damm 126,13469,
http://www.bonitas-service.de,Bonitas Hausverwaltungs- und Immobilien GmbH,Berlin-Mitte,Chausseestr. 10,10115,
http://www.borchert-hv.de,Borchert Hausverwaltungen Immobilienverwaltung,Berlin-Wilmersdorf,Berliner Str. 53,10713,
http://www.brack-ag.de,"Brack & Co. AG, Hermann Haus- und Grundstücksaverwaltung",Berlin-Charlottenburg,Kurfürstendamm 33,10719,
http://www.bs-hv.de,BS Hausverwaltung e.K.,Berlin-Mitte,Robert-Koch-Platz 4,10115,
http://www.cghausverwaltung.de,cg Hausverwaltung Hausverwaltung,Berlin-Reinickendorf,Raschdorffstr 3,13409,
http://www.condohausverwaltung.com,condo Hausverwaltung GmbH Haus- und Immobilienverwaltung,Berlin-Mitte,Oranienburger Str. 90,10178,
http://www.conteka-hausverwaltung.de,conteka Haus- und Vermögensverwaltung,Berlin-Wilhelmstadt,Am Pichelssee 24b,13595,
http://www.conwimo.de/,Conwimo GmbH Hausverwaltung,Berlin-Zehlendorf,Berliner Str. 87,14169,
http://www.credit-solution.de,credit solution GmbH Immobilienverwaltung,Berlin-Schöneberg,Leberstr. 49,10829,
http://www.hda-online.de,Dallmer & Arnold HDA Hausverwaltung,Berlin-Steglitz,Schloßstr. 48a,12165,
http://www.domus-wg.de,Domus Wohnungsgenossenschaft eG Grundstücksverwaltungen,Berlin-Halensee,Heilbronner Str. 10,10711,
http://www.wiho.de,Dr. Seifert Wilmersdorfer Hochbau AG Haus- und Grundstücksverwaltungen,Berlin-Steglitz,Kurze Str. 10,12167,
http://www.droste-immobilien.de,Droste und Co. Immobilien,Berlin-Charlottenburg,Kurfürstendamm 217,10719,
http://www.emuth-hvw.de,Emuth Hausverwaltung,Berlin-Mitte,Anklamer Str. 22,10115,
http://www.esta-haus.de,ESTA Haus- und Grundbesitz GmbH & Co. KG Hausverwaltung,Berlin-Prenzlauer Berg,Kollwitzstr. 18,10405,
http://www.fairplay-hausverwaltung.de,Fairplay Hausverwaltung Haus- und Grundstücksgesellschaft,Berlin-Heiligensee,Wesselburer Weg 10,13503,
https://home.immobilienscout24.de/29Xbm,Fengler Hausverwaltungen und Immobilien,Berlin-Dahlem,Fohlenweg 4,14195,
http://www.gamma-2000.de/,GAMMA 2000 plus GmbH Haus- und Grundstücksverwaltungen,Berlin-Steglitz,Poschingerstr. 23,12157,
http://www.gehrung-berlin.de,Gehrung Ges. für Grundbesitz und Vermögensverwaltung GmbH,Berlin-Tiergarten,Einemstr. 24,10785,
http://www.gemak.de/,Gemak GmbH,Berlin-Mitte,Brunnenstr. 181,10119,
http://www.geverka.de,GEVERKA Gesellschaft f. Immobilien u. Grundstücksverw.mbH Verwaltung von Immobilien,Berlin-Charlottenburg,Hardenbergstr. 12,10623,
http://www.gfg-hausverwaltung.de,GFG Hausverwaltungsgesellschaft mbH,Berlin-Wilmersdorf,Kaubstr. 7A,10713,
http://www.gfwob.de,GfWOB mbH,Berlin-Fennpfuhl,Storkower Str. 209,10369,
http://www.gruenspecht-hausverwaltung.de,Grünspecht Immobilien Hausverwaltung,Berlin-Nikolassee,Spanische Allee 74,14129,
http://www.harnisch-hausverwaltungen.de,Harnisch Hausverwaltung,Berlin-Prenzlauer Berg,Schönhauser Allee 6-7,10119,
http://www.harry-gerlach.de,Harry Gerlach Wohnungsunternehmen GmbH Hausverwaltung,Berlin-Wilmersdorf,Berliner Str. 120,10713,
http://www.hausverwaltung-blumberg.de,Hausverwaltung Blumberg GmbH Haus- und Grundstücksverwaltungen,Berlin-Charlottenburg,Olivaer Platz 15,10707,
http://www.hvfritzsche.de,Hausverwaltung Fritzsche,Berlin-Lichterfelde,Kamillenstr. 62,12203,
http://www.hausverwaltung-hoell.de,Hausverwaltung Hoell GmbH,Berlin-Wedding,Tegeler Str. 7,13353,
http://www.hausverwaltung-kasperczyk.de/,Hausverwaltung Kasperczyk GmbH Hausverwaltung,Berlin-Wilmersdorf,Lietzenburger Str. 71,10719,
http://www.dieter-mann.de,Hausverwaltung Mann GmbH Haus- und Grundstücksverwaltungen,Berlin-Charlottenburg,Bismarckstr. 6- 7,10625,
http://www.hvschrobsdorff.de,Hausverwaltung Schrobsdorff seit 1883 Hausverwaltung,Berlin-Westend,Reichsstr. 31,14052,
http://www.hhb-real.de,HBB Real GmbH Verwaltungsgesellschaft,Berlin-Mitte,Auguststr. 74,10117,
http://www.hcsberlin.de,HCS Facility- u. Projektmanagement GmbH Kreditabwicklung,Berlin-Kreuzberg,Freiligrathstr. 11,10967,
http://www.heimfried.de,Heimfried Hausverwaltung e.K. Haus- und Grundstücksverwaltungen,Berlin-Karow,Heimfriedstr. 2,13125,
http://www.hgg-gmbh.de,HGG Immobilienmanagement GmbH,Berlin-Kreuzberg,Großbeerenstr. 57A,10965,
http://www.hhb-real.de/,HHB Real Verwaltungs GmbH Haus- und Grundstücksverwaltungen,Berlin-Mitte,Oranienburger Str. 4,10178,
http://www.holger-schmidt-immobilien.de,HSI Haus- und Immobilienverwaltung Holger Schmidt,Eichwalde,Fontaneallee 79,15732,
http://www.hausverwaltung-hubert.de,Hubert Hausverwaltungsgesellschaft mbH,Berlin-Waidmannslust,Waidmannsluster Damm 138,13469,
http://www.hubertus-rdm.de,Hubertus Haus- und Grundstücksvermittlung Immobilien und Hausverwaltungen,Berlin-Schöneberg,Keithstr. 2- 4,10787,
http://www.kneifel-partner.de/,hv-im Grundstücksgesellschaft mbH Haus- und Grundstücksverwaltungen,Berlin-Karlshorst,Dorotheastr. 30,10318,
http://www.icc-concept-consulting.de,ICC Ehrenreich GmbH Immobilien Conept Consulting,Berlin-Lichterfelde,Alsterweg 66,14167,
http://www.idema-hausverwaltung.de,IDEMA Immobilienbetreuungs-und Verwaltungsgesellschaft mbH,Berlin-Alt-Hohenschönhausen,Schleizer Str. 21,13055,
http://www.imacon-gmbh.de,Imacon Immobilienverwaltungs- und Bewertungs mbH Hausverwaltung,Berlin-Friedrichshagen,Bölschestr. 91,12587,
http://www.immobilienverwaltung-kelm.de,Immobilienverwaltung Kelm e.K. Immobilien,Berlin-Wilmersdorf,Wilhelmsaue 138,10715,
http://www.integra-verwaltung.de,Integra Immobilien-Verwaltung Vermietung GmbH,Berlin-Mitte,Neue Grünstr. 18,10179,
http://www.i-v-berlin.de,IVB Herbert Grasshoff,Berlin-Nikolassee,Haagstr. 7,14129,
http://www.hausverwaltung-rossner.de,Joachim Roßner GmbH Hausverwaltung,Berlin-Zehlendorf,Beuckestr. 20,14163,
http://www.kerstin-jungfer.de,Jungfer Kerstin Hausverwaltung,Berlin-Mitte,Wallstr. 86,10179,
http://www.von-garrel-hv.de/,Karl-Heinz von Garrel Hausverwaltung e.Kfm. Haus- und Grundstücksverwaltungen,Berlin-Charlottenburg,Knesebeckstr. 50,10719,
http://www.kergigo.de,KerGiGo-Hausverwaltung Berlin Hausverwaltung,Berlin-Wedding,Brüsseler Str. 47,13353,
http://www.kindermann-hausverwaltung.de/,Kindermann Hausverwaltung GmbH Haus- und Grundstücksverwaltungen,Berlin-Frohnau,Ludolfingerweg 8A,13465,
http://www.kraft-hausverwaltung.com,Kraft Hausverwaltung Haus- und Grundstücksverwaltungen,Berlin-Spandau,Marschallstr. 9,13585,
http://www.kshausverwaltung.de,KS Hausverwaltung Haus- und Grundstücksverwaltung,Berlin-Heiligensee,Bläßhuhnweg 15,13503,
http://www.ladies-trust.de,Ladies Trust GmbH Haus- und Grundstücksverwaltungen,Berlin-Tempelhof,Bosestr. 47,12103,
http://www.linden-haus.de,LHG Linden-Haus GmbH,Berlin-Wilmersdorf,Kufsteiner Str. 2,10825,
http://www.spree28.berlin,Lindenstraße 28 Projektgesellschaft mbH & Co. KG,Berlin-Köpenick,Lindenstr. 28,12555,
http://www.lrc-management.com,LRC Management GmbH Haus- und Grundstücksverwaltungen,Berlin-Charlottenburg,Schlüterstr. 37,10629,
http://www.maior-domus.de/,Maior Domus Hausverwaltungs GmbH Haus- und Grundstücksverwaltungen,Berlin-Tiergarten,Landgrafenstr. 14,10787,
http://www.marnach-hauswartung.de,Marnach Hauswartung GmbH,Berlin-Kreuzberg,Tempelhofer Ufer 22,10963,
http://www.mbs-schuberth.de,MBS Schuberth GmbH Hausverwaltung und Immobilien,Berlin-Reinickendorf,Scharnweberstr. 64,13405,
http://www.meister-grundbesitz.de,Meister Grundbesitzmanagement GmbH,Berlin-Niederschönhausen,Körnerstr. 13,13156,
http://www.mfgservicesgmbh.de,MFG Services GmbH,Berlin-Lichterfelde,Patschkauer Weg 35,14195,
http://www.michelmann-immobilien.de,Michelmann & Co. Hausmanagement GmbH,Berlin-Lichtenberg,Gudrunstr. 4,10365,
http://www.hausverwaltung-dr-moeller.de/,Möller Andreas Dr. Hausverwaltungen,Berlin-Wilmersdorf,Pfalzburger Str. 47a,10717,
http://www.hausverwaltung-nesari.de,Nesari-Hausverwaltung Hausverwaltung,Schöneiche,Brandenburgische Str. 29,15566,
http://www.niederstetter.de,Niederstetter Grundstücksverwaltung GmbH & Co. KG,Berlin-Weißensee,Gehringstr. 55-56,13088,
http://www.nietschmann.de,Nietschmann Grundbesitz GmbH Hausverwaltung,Berlin-Schöneberg,Tauentzienstr. 1,10789,
http://www.nymwegen.de,Nymwegen Hausverwaltung GmbH,Berlin-Kreuzberg,Großbeerenstr. 21,10963,
http://www.obiora.de,Obiora Immobilien,Berlin-Wilmersdorf,Fasanenstr. 41,10719,
http://www.odik.haus,Ostdeutsches Immobilienkontor,Berlin-Marzahn,Landsberger Allee 366,12681,
http://www.ostrowski-hausverwaltung.de,Ostrowski Hausverwaltung GmbH,Berlin-Heinersdorf,Prenzlauer Promenade 42,13089,
http://pallasseum-wohnbauten.de/,Pallasseum Wohnbauten KG Hausverwaltung,Berlin-Schöneberg,Pallasstr. 3,10781,
http://www.patt-hausverwaltung.de/,Patt Hausverwaltung GmbH Hausverwaltung,Berlin-Tegel,Gorkistr. 9,13507,
http://www.hv-piasta.de,Piasta Ullrich Haus- und Grundstücksverwaltung,Berlin-Westend,Eichenallee 15,14050,
http://www.pontow-berlin.de,Pontow Ilse Haus- und Grundstücksverwaltungen,Berlin,Kiefholzstr. 15,12435,
http://www.pimg.de,Prinzregent Immobilien-Management GmbH,Berlin-Mitte,Alte Jakobstr. 85,10179,
http://www.proefrockgmbh.de,Pröfrock & Pröfrock Grundstücks- und Hausverw. GmbH,Berlin-Lichterfelde,Morgensternstr. 22,12207,
http://www.ps-wapler-hv.de,PS-Wapler-Immobilienmanagement GmbH & Co. KG,Berlin-Mitte,Neue Grünstr. 10,10179,
http://www.kreto.net,Reichel Kerstin KRETO -Time Office,Berlin-Rummelsburg,Pfarrstr. 138,10317,
http://www.hausverwaltung-rommel.de,Rommel,Berlin-Oberschöneweide,Edisonstr. 34,12459,
http://www.rosenberg-immobilien.de,Rosenberg Immobilien,Schöneiche,Brandenburgische Str. 93,15566,
http://www.ruedrich-immobilien.de,Rüdrich Frank Immobilien Hausverwaltung,Berlin-Niederschönhausen,Uhlandstr. 42,13156,
http://www.immobilien-verwaltung-berlin.de,Schaale Martina Haus- und Grundstücksverwaltung,Berlin-Steglitz,Kniephofstr. 26A,12157,
http://www.schmidt-hvw.de/,Schmidt Ulrich Hausverwaltung,Berlin-Friedenau,Schnackenburgstr. 4,12159,
http://www.schultz-immobilien.de,Schultz Hausverwaltung,Berlin-Karlshorst,Weseler Str. 12,10318,
http://www.im-schuett.de,Schütt Sylvia Immobilienmanagement,Berlin-Mariendorf,Lankwitzer Str. 48,12107,
http://www.meg-hausverwaltung.de,Ströhlein Sigrid Immobilien,Berlin-Steglitz,Leydenallee 58,12167,
http://www.tandem-hausverwaltung.de,Tandem Hausverwaltung GmbH,Berlin-Charlottenburg,Leibnizstr. 60,10629,
http://www.thanne.de/,Thanscheidt Hausverwaltung,Berlin-Lichterfelde,Ahlener Weg 9A,12207,
http://www.hausverwaltung-thiedig.de/,Thiedig Bernd Hausverwaltung,Berlin-Lankwitz,Birkbuschstr. 47,12167,
http://www.hausverwaltung-tietz.de,Tietz Steffen Dipl.-Ing. Haus- und Grundstücksverwaltung,Berlin-Schmöckwitz,Fliederweg 4A,12527,
http://www.berlinverwaltung.de,Tolksdorff Haus-und Grundstücksverwaltung,Berlin-Kaulsdorf,Myslowitzer Str. 50,12621,
http://www.tivb.de,Trust Immobilien Haus- und Grundstücksverwaltungen,Berlin-Friedrichshain,Pettenkoferstr. 11,10247,
http://www.britze.net,Vering & Waechter KG GmbH & Co. Haus und Grundstücksverwaltung,Berlin-Tempelhof,Gottlieb-Dunkel-Str. 47,12099,
http://www.wiba-hauskonzept.de,WIBA Hauskonzept Haus- u. Grundstücksverwaltungen,Berlin-Neukölln,Karl-Marx-Str. 147B,12529,
http://www.wim-gmbh.eu/,Wim-GmbH Haus- und Grundstücksverwaltungen,Berlin-Mitte,Legiendamm 8,10179,
http://www.knobel-hausverwaltung.de,Wohneigentums- und Hausverwaltungsgesellschaft mbH Haus- und Grundstücksverwaltung,Berlin-Friedrichshain,Friedenstr. 91A,10249,
http://www.wohnform-hv.de,Wohnform Gesellschaft für Wohnbauten mbH Hausverwaltung,Berlin-Westend,Westendallee 87,14052,
http://www.owhv.de,Wolf Hausverwaltung GmbH,Berlin-Lichterfelde,Moltkestr. 40,12203,
http://www.wwdberlin.de,Wwd Wohnungswirtschaftliche Dienstleistungen GmbH,Berlin-Tegel,Am Borsigturm 33,13507,
http://www.zentel-immobilien.de,Zentel A. Hausverwaltung,Berlin-Moabit,Feldzeugmeisterstr. 4,10557,
,Fellmann Renate Hausverwaltung,Berlin-Lichterfelde,Bahnhofstr. 4B,12207,
,H & P Wirtschaftsdatenbank GmbH Haus- und Grundstücksverwaltungen,Berlin-Prenzlauer Berg,Ostseestr. 113,10409,
,IDK - Immobilien Dienstleistungen König UG (haftungsbeschränkt) Haus- und Grundstücksverwaltungen und Projektsteuerung,Berlin-Oberschöneweide,Rathenaustr. 12,12459,
,Mi-Casa-Verwaltung GmbH,Berlin-Lichtenrade,Rhinstr. 8K,12307,
,Paradies Karin Hausverwaltung,Berlin-Steglitz,Lauenburger Str. 25,12157,
,Possin-Weisser Hausverwaltung,Berlin-Nikolassee,Alemannenstr. 13,14129,
,Schiefke Klaus-Dieter,Berlin-Lichterfelde,Kommandantenstr. 94,12205,
,AMO Grundstücksgesellschaft mbH,Berlin-Charlottenburg,Kurfürstendamm 36,10719,
,Becker Monika Haus- und Grundstücksverwaltungen,Berlin-Charlottenburg,Mierendorffplatz 13,10589,
http://www.blau-rot-buerohaus.de/,Blau-Rot GmbH Donath,Berlin-Wilhelmstadt,Scharfe Lanke 103,13595,
http://www.crothe.com,C. Rothe Hausverwaltungs-GmbH,Berlin-Grunewald,Trabener Str. 55,14193,
http://conzept-hausverwaltung.de,Conzept Hausverwaltung Gieseler & Totzke GbR Haus- und Grundstücksverwaltungen,Berlin-Lankwitz,Haynauer Str. 65- 67,12249,
,"Curta Beate Hausverwaltung, Hausverwaltung u. Immobilienservice",Berlin-Lichtenrade,Lintruper Str. 26,12305,
http://www.gv-degenhardt.de,Degenhardt Thomas Grundstücksverwaltung,Berlin-Steglitz,Englerallee 32,14195,
http://www.peterkg.de,Dipl.-Kfm. Gerhard Peter Hausverwaltungs- und Immobilien KG Haus- und Grundstücksverwaltungen,Berlin-Charlottenburg,Darwinstr. 4,10589,
,Domus Real Estate GmbH Haus- und Grundstücksverwaltungen,Berlin-Wilmersdorf,Pariser Str. 3,10719,
,Drozdzinski Karol Hausverwaltung,Berlin-Mitte,Friedrichstr. 172,10117,
http://www.europahaus.de,Europahaus Grundstücksgesellschaft mbH & Co. KG Grundstücksverwaltungen,Berlin-Charlottenburg,Ernst-Reuter-Platz 10,10587,
http://www.fladee-peters.de/,Fladée & Peters GmbH Immobilienverwaltungen,Berlin-Tempelhof,Ordensmeisterstr. 57,12099,
http://www.galib.de,G. a. L. i. B. GmbH Grundstücksverwaltung am Lietzensee in Berlin,Berlin-Charlottenburg,Kantstr. 105,10627,
,Grabsch Ekkehard Grundstücksverwaltungen,Berlin-Frohnau,Ludolfingerplatz 9,13465,
http://www.hausverwalter-berlin.de,Hausverwaltung Wesemeyer GmbH,Berlin-Prenzlauer Berg,Dunckerstr. 19,10437,
,Heß Deike Hausverwaltung,Berlin-Zehlendorf,Potsdamer Str. 4,14163,
http://www.raschdorf-hausverwaltung.de,Irene Raschdorf Haus- und Wohnungsverwaltungs GmbH,Berlin-Rudow,Schönefelder Str. 13,12355,
http://www.jahn-hausverwaltung.de,Jahn Kathrin Hausverwaltung,Berlin-Alt-Hohenschönhausen,Bennostr. 2,13053,
,Jeffke Ilona Hausverwaltung,Berlin-Waidmannslust,Schonacher Str. 1,13469,
,Kalinowsky Hausverwaltungen Grundstücksverwaltung,Berlin-Wilmersdorf,Hohenzollerndamm 187,10713,
http://www.koenigstadt.de,Königstadt Gesellschaft für Grundstücke + Industrie mbH Haus- und Grundstücksverwaltung,Berlin-Charlottenburg,Kurfürstendamm 33,10719,
http://www.koenigstadt.de,Königstadt Liegenschaften-Verwaltungs-GmbH Haus u. Grundstücksverwaltungen,Berlin-Charlottenburg,Kurfürstendamm 33,10719,
,Krahl Hausverwaltung,b-Charlottenburg,Stuttgarter Platz 15,10627,
,Lange Harald WEG-Verwaltung,Berlin-Lichterfelde,Gardeschützenweg 139,12203,
,Lingner Dirk Immobilienverwaltung,Berlin-Tegel,Gorkistr. 7,13507,
,Macht Norbert Hausverwaltung,Berlin-Neukölln,Harzer Str. 3,12059,
http://www.map-liegenschaften.de,MAP Liegenschaften GmbH,Berlin-Kreuzberg,Zimmerstr. 26,10969,
,Marzahn Johannes Hausverwaltung,Berlin,Bamberger Str. 28,10779,
http://www.gewerbepark-karlshorst.de,MOHA Grundstücksverwaltungs- und Verwertungsgesellschaft mbH,Berlin-Karlshorst,Straße am Heizhaus 1,10318,
http://www.hvw-morgenroth.de,Morgenroth Anke Karen,Berlin-Tempelhof,Podewilsstr. 8A,12103,
,Müller Günter Haus- und Grundstücksverwaltung,Berlin-Heiligensee,Damwildsteig 8,13503,
,Petretti Christina Hausverwaltungen,Berlin-Zehlendorf,Ilsensteinweg 6,14129,
,Reher Grundstücksverwaltung GmbH Haus- und Grundstücksverwaltung,Berlin-Kreuzberg,Köpenicker Str. 9,10997,
http://www.hausverwaltung-renger.de,Renger Kerstin Hausverwaltung,Berlin-Charlottenburg,Kurfürstendamm 206,10719,
,Richter-Schönfeld & Krüger GbR Grundstücksverwaltung,Berlin-Wilmersdorf,Bundesplatz 15,10715,
,Rivera Immobilien Consult,Berlin-Prenzlauer Berg,Ostseestr. 113,10409,
,Schneider Erben,Berlin-Friedenau,Odenwaldstr. 9,12161,
http://www.secon-hausverwaltung.de,SECON Haus- und Grundstücksverwaltung GmbH,Berlin-Tegel,Wittestr. 24,13509,
,Seldeneck Portfolio GmbH Haus- und Grundstücksverwaltungen,Berlin-Schöneberg,Bülowstr. 66,10783,
http://www.semper-gv.de,Semper Grundstücksverw. GmbH,Berlin-Halensee,Kurfürstendamm 115C,10711,
http://www.mehr-als-gute-wohnungen.de,"SOKA-BAU, Zusatzversorgungskasse des Baugewerbes AG Haus- und Grundstücksverwaltungen",Berlin-Kreuzberg,Eisenbahnstr. 39,10997,
http://www.sophie-gips.de,Sophie-Gips GbR,Berlin-Mitte,Sophienstr. 21,10178,
,Stadtmitte Apartments Limited,Berlin-Mitte,Friedrichstr. 171,10117,
,"VeWo, Inh. S. Wudicke Hausverwaltung",Berlin-Steglitz,Poschingerstr. 9,12157,
,Walter Ilse Grundstücksverwaltung,Berlin-Friedrichshain,Pettenkoferstr. 3,10247,
http://www.wfg.de,WFG Immobilien GmbH Immobilien Hausverwaltung,Berlin-Zehlendorf,Bergengruenstr. 11,14129,
,Zwiesigk Michael Hausverwaltung,Berlin-Friedenau,Holsteinische Str. 35,12161,
,Asgard Haus- und Grundbesitzverw. GmbH,Berlin-Neukölln,Fuldastr. 31,12045,
,Bachmann Marina Hausverwaltung,Berlin-Heiligensee,Isegrimsteig 37B,13503,
,Berliner Haus- und Eigentumsverwaltung Hausverwaltung,Berlin-Prenzlauer Berg,Bornholmer Str. 72a,10439,
,Berlux Bürohaus Hausverwaltung,Berlin-Prenzlauer Berg,Storkower Str. 113,10407,
,Böttcher & Eichler Verwaltungs GmbH,Berlin-Frohnau,Karmeliterweg 97,13465,
,"Burdensky M. Grundbesitzverwaltung, J.",Berlin-Westend,Olympische Str. 16,14052,
,Centro Park KG KAWI Grundstücksverwaltungs-GmbH & Co. Haus- und Grundstücksverwaltungen,Berlin-Schmargendorf,Auguste-Viktoria-Str. 63,14199,
,CityGate Immobilien GmbH Hausverwaltungen und Immobilien,Berlin-Wilmersdorf,Uhlandstr. 156,10719,
,Dahlem-Immobilien UG (haftungsbeschränkt) Hausverwaltung,Berlin-Dahlem,Königin-Luise-Str. 73A,14195,
,Domino Immobilien Agentur Helge Grüß Hausverwaltung,Berlin-Prenzlauer Berg,Hans-Otto-Str. 14,10407,
,E & G Immobilien Management GmbH,Berlin-Schöneberg,Wittenbergplatz 3A,10789,
,Eberlein Hausverwaltung,Berlin-Reinickendorf,Dahnstr. 4,13403,
,EBIG Entwickl. -u. Beteiligungsges. für Immobilien mbH & Co. Haus- und Grundstücksverwaltungen,Berlin-Mitte,Hackescher Markt 2-3,10178,
,Gansen Heide Hausverwaltung,Berlin-Lübars,Alter Bernauer Heerweg 46,13469,
,Gebrüder Schacher Hausverwaltung,Berlin-Charlottenburg,Sybelstr. 69,10629,
,Gonschorek Hausverwaltung Bettina Tessmann,Berlin-Hermsdorf,Falkentaler Steig 29,13467,
,"Grundstücksverwaltung Lichterfelde, M. Breitenbach u. Dr. H. Weber GmbH",Berlin-Lichterfelde,Gardeschützenweg 106,12203,
,Hans-Joachim Schiller Hausverwaltungs- und Immobilien GmbH  Grundstücksverwaltungen,Berlin-Charlottenburg,Pestalozzistr. 78,10627,
,Härtig Peter Hausverwaltung,Berlin-Wannsee,Schäferstr. 29,14109,
,Hefter Grundstücksverwaltung,Berlin-Charlottenburg,Nürnberger Str. 13,10789,
,Hendlmaier Hausverwaltung GmbH,Berlin-Mitte,Veteranenstr. 12,10119,
,Hinz Karin Hausbetreuung,Berlin-Wedding,Reinickendorfer Str. 37,13347,
,Jahr Grundbesitz GmbH & Co. KG,Berlin-Tiergarten,Kurfürstenstr. 72-74,10787,
,Kaehne Barbara Hausverwaltung,Berlin-Marienfelde,Greulichstr. 18,12277,
,Knobel Tino Hausverwaltung,Berlin-Charlottenburg,Spandauer Damm 5,14059,
,Koestner Michael,Berlin-Mitte,Fürstenberger Str. 2,10435,
,Konrad & Sohn OHG Haus- und Grundstücksverwaltungen,Berlin-Weißensee,Falkenberger Str. 38,13088,
,LAREN Hausverwaltung GmbH Grundstücksverwaltung,Berlin-Schöneberg,Tauentzienstr. 2,10789,
,Lietz Daniela Hausverwaltung,Berlin-Steglitz,Buhrowstr. 4A,12167,
,Lorenz Sabine Hausverwaltung,Berlin-Reinickendorf,Amendestr. 105,13409,
,Lubitz M.,Berlin-Spandau,Kleine Mittelstr. 5,13585,
,MG Hausverwaltungen,Berlin-Charlottenburg,Behaimstr. 3,10585,
,Moschner H. I. Immobilienverwaltung,Berlin-Wittenau,Wilhelmsruher Damm 240A,13435,
,Mühlberger & Fest GmbH Grundstücksverwaltung,Berlin-Schmargendorf,Warnemünder Str. 10B,14199,
,Mühlefeldt & Partner GmbH,Berlin-Mitte,Wallstr. 18,10179,
,Neidholdt Hausverwaltung GmbH,Berlin-Charlottenburg,Kurfürstendamm 62,10707,
,Objekt plus Immobilienverwaltung GmbH Hausverwaltung,Berlin-Alt-Hohenschönhausen,Konrad-Wolf-Str. 60,13055,
,Ohnesorge Gerd Hausverwaltung,Berlin-REINICKENDORF,Markgrafenstr. 67,13465,
,OWA Dienst-und Verwaltungs-GmbH Hausverwaltung,Berlin-Schöneberg,Kurfürstenstr. 106,10787,
,Pagenstecher Guido Hausverwaltung,Berlin-Schöneberg,Hewaldstr. 7,10825,
,Pfitzner Hans-Hubertus Grundstücksverwaltung,Berlin-Wilmersdorf,Württembergische Str. 23,10707,
,Pohlmann Arnim Hausverwaltung,Berlin-Reinickendorf,Scharnweberstr. 24,13405,
,Profil Haus u. Grund Verwaltung GmbH,Berlin-Prenzlauer Berg,Bötzowstr. 37,10407,
,Riech Sandra Hausverwaltung,Berlin-Adlershof,Wassermannstr. 79,12489,
,Rostig Henry Hausverwaltung,Berlin-Französisch Buchholz,Pankstr. 8-10,13127,
,Rothert Hausverwaltungen GmbH,Berlin-Charlottenburg,Kurfürstendamm 37,10719,
,Schulz-Maneke Dieter Dipl.-Kfm. Grundstücksverwaltung,Berlin-Schöneberg,Kolonnenstr. 29,10829,
,Schulze Thomas-Harry GrundstücksVerw. Versich.,Berlin-Kladow,Uferpromenade 34,14089,
,Schumann & Heinisch Grundstücks GmbH & Co.KG,Berlin-ZEHLENDORF,Potsdamer Str. 3,14163,
,Seeling Klaus-Rainer Hausverwaltung,Berlin-Zehlendorf,Pfarrlandstr. 20,14165,
,Senst Hausverwaltungs GmbH & Co.KG Hausverwaltung,Berlin-Steglitz,Schloßstr. 96,12163,
,Sixdorf Immobilienverwaltung,Berlin-Charlottenburg,Neue Kantstr. 14,14057,
,Skora,Berlin-Schöneberg,Grunewaldstr. 33,10823,
,Teichner Katharina,Berlin-REINICKENDORF,Langenauer Weg 7,13503,
,TRIOS Hausverwaltungsgesellschaft mbH,Berlin-Spandau,Wiesendamm 21-23,13597,
,VEGIS Immobilien Verwaltungs- und Vertriebsges. mbH Hausverwaltung,Berlin-Neukölln,Neuköllnische Allee 154,12057,
,Von der Heyde Grundbesitzverwaltungsges. mbH,Berlin,Schaperstr. 30,10719,
,Wieczorek und Partner GbR Grundstücks- und Hausverwaltung,Berlin-Karow,Siedlungsring 97,13125,
,Wohnungsbaugenossenschaft Friedrichshain Hausverwaltung,Berlin-Friedrichshain,Frankfurter Allee 73D,10247,
,Zschischang u. Müller Hausverwaltung,Berlin-WEIßENSEE,Langhansstr. 139,13086,
,Abel Horand Haus- und Grundbesitzverwaltung,Berlin-Lichterfelde,Hortensienstr. 9,12203,
,Achte Celtic Grundstücks GmbH,Berlin-Schöneberg,Rembrandtstr. 16,12157,
,ADESTE GmbH c/o Hausverw. Minkwitz GmbH,Berlin-Mitte,Schützenstr. 5,10117,
,Aicher Hausverwaltung Wohnanlage Weiße Taube Vermietung von Immobilien,Berlin-Alt-Hohenschönhausen,Schalkauer Str. 29,13055,
,Akanthus Grundstücks- und Handelsgesellschaft mbH,Berlin-Grunewald,Wangenheimstr. 29,14193,
,Akbar Casim Hausverwaltung,Berlin-Britz,Bürgerstr. 8,12347,
,Akbar Qasim Hausverwaltung,Berlin-Gesundbrunnen,Martin-Opitz-Str. 17A,13357,
,Alfons Beck Grundstücksverwaltungsges. mbH,Berlin-Neukölln,Lahnstr. 52,12055,
,ALP GmbH,Berlin-Charlottenburg,Schlüterstr. 9,10625,
,AM Grundstücksverwaltung GmbH,Berlin-Charlottenburg,Kurfürstendamm 199,10719,
,ANKA Terrain Grundstücksverw.-und Geschäftsbesorgung GmbH Haus- und Grundstücksverwaltungen,Berlin-Wilhelmstadt,Dorfstr. 53B,13597,
,Arco Beteiligungsgesellschaft für Grundstücksverw. mbH,Berlin-Rudow,Pfarrsiedlung 8,12355,
,"ASCAR FM GmbH, Michael Scheffler Hausverwaltung",Berlin-Friedrichshain,Weserstr. 15,10247,
,Asperger Thomas,Berlin-Lichterfelde,Weddigenweg 49,12205,
,Assfalg Theo Hausverwaltung,Berlin-Schöneberg,Tempelhofer Weg 48,10829,
,AT Grundstücksverwaltungs GmbH,Berlin-Lichtenberg,Am Wasserwerk 22,10365,
,Avingo Haus- und Grundstücksverwaltung,Berlin-Charlottenburg,Goethestr. 61,10625,
,B.& W.Grundstücksverwaltungsges.mbH,Berlin-Spandau,Altonaer Str. 6,13581,
,Babko Immobilien-Verwaltungs GmbH Abteilung Hausverwaltung,Berlin-Lichterfelde,Bäkestr. 2,12207,
,Bading Gunter Grundstücksverwaltung,Berlin-Lichtenrade,Rapstedter Weg 55,12305,
,Banel Grundbesitz GmbH,Berlin-Schöneberg,Potsdamer Str. 188,10783,
,Bäthge Grundst.verw.-GmbH,Berlin-Spandau,Stresowplatz 7,13597,
,BDS Grundstücks GmbH & Co KG,Berlin-Friedrichshain,Jessnerstr. 47,10247,
,Bebra Hausverwaltung GmbH & Co. KG,Berlin-Charlottenburg,Sophie-Charlotten-Str. 19,14059,
,Bebrag Hausverwaltung GmbH Grundstücksverwaltungen,Berlin-Schmöckwitz,Am Seddinsee 34,12527,
,Becker Benjamin Hausverwaltung,Berlin-Charlottenburg,Mierendorffplatz 13,10589,
,Becksche Hausverwaltung Hausverwaltung,Berlin-Steglitz,Rothenburgstr. 36,12163,
,Beeken Hausverwaltung,Berlin-Wilhelmstadt,Teltower Str. 18,13597,
,Beer und Bremkamp GbR,Berlin-Britz,Gradestr. 36,12347,
,Bekir Grundstücks GmbH und Co. KG Vermietung,Berlin-Neukölln,Lahnstr. 33,12055,
,Bergmann-Daumke Dipl.-Kffr. Grundstücksverwaltung,Berlin-Wilmersdorf,Bundesplatz 15,10715,
,Berlin-Kontor Verwaltungs GmbH Haus- und Grundstücksverwaltung,Berlin-Mitte,Friedrichstr. 133,10117,
,Bermaop GmbH,Berlin-Charlottenburg,Savignyplatz 9,10623,
,Bernd Voigt Grundbesitz KG,Berlin-Wilmersdorf,Spichernstr. 15,10777,
,Beuting Hans-Jörg Hausverwaltung,Berlin-Lankwitz,Birkbuschstr. 40-41,12167,
,BEWA Grundstücksgesellschaft mbH Hausverwaltung,Berlin-Reinickendorf,Reginhardstr. 34,13409,
,BFM Bucher Frischmilch GmbH,Berlin-Buch,Am Stener Berg 41,13125,
,Bogdanski H.,Berlin-Zehlendorf,Goethestr. 26A,14163,
,Böhmert Horst Hausverwaltung,Berlin-Lichtenrade,Rehagener Str. 43,12307,
,Bonner GbR Vwtg.,Berlin-Steglitz,Lauenburger Platz 1-2,12157,
,Borghesia Real Estate & Management UG (haftungsbeschränkt),Berlin-Schmargendorf,Breite Str. 9,14199,
,Böttcher Grund & Boden Grundstücksgesellschaft mbH Grundstücksverwaltung,Berlin-Charlottenburg,Marburger Str. 5,10789,
,Boxberger Str. 3 Grundstücks GmbH & Co. KG,Berlin-Marzahn,Boxberger Str. 3,12681,
,Brehmer-Cronjaeger Gabriele Haus- und Grundstücksverwaltung,Berlin-Schöneberg,Regensburger Str. 33,10777,
,C & S Hausverwaltung,Berlin-Schöneberg,Potsdamer Str. 143,10783,
,CasaKonzept Berlin GmbH,Berlin-Kreuzberg,Cuvrystr. 2,10997,
,ccCM Centermanagement GmbH,Berlin-Spandau,Moritzstr. 24,13597,
,CE Canadian estates Grundstücksverwaltungsgesellschaft mbH,Berlin-Rummelsburg,Weitlingstr. 122,10317,
,Central Asset Management GmbH Immobilien,Berlin-Tiergarten,Am Karlsbad 11,10553,
,Clausnitzer Claus Hausverwaltung GbR Haus- und Grundstücksverwaltung,Berlin-Hermsdorf,Falkentaler Steig 110,13465,
,Concorde Grundbesitz- Verwaltungsgesellschaft mbH Hausverwaltung,Berlin-Tempelhof,Wenckebachstr. 21,12099,
,Condor Grundstücksverwaltungs- & Modernisierungs-KG,Berlin-Charlottenburg,Spandauer Damm 52,14059,
,Conle Henning Grundstücksverwaltung,Berlin-Charlottenburg,Fritschestr. 27,10585,
,Consens Hausverwaltung und Gebäudeservice GmbH,Berlin-Wilhelmsruh,Schönholzer Weg 14,13158,
,Consul Grundbesitz und Verwaltungs GmbH,Berlin-Schöneberg,Bayreuther Str. 7,10787,
,Cussler Thorsten Verwaltung,Berlin-Friedenau,Bundesallee 67,12161,
,Czarny Grundst. u. Vermittlungs- GmbH,Berlin-Wilmersdorf,Ludwigkirchstr. 3,10719,
,DaMiTon Grundstücksgesellschaft mbH Grundstücksverwaltung,Berlin-Spandau,Rellstabweg 30,13591,
,Dauer Angelika Hausverwaltung,Berlin-Lichterfelde,Manteuffelstr. 20,12203,
,Dehn Hausverwaltung e.K.,Berlin-Charlottenburg,Meinekestr. 27,10719,
,Deutelmoser Verwaltungs- und Immobilien GmbH,Berlin-Grunewald,Trabener Str. 85,14193,
,Die Stellwerk Hausverwaltung GmbH,Berlin-Wilmersdorf,Brandenburgische Str. 27,10707,
,Dietrich Karl Grundstücksverwaltung,Berlin-Wannsee,Königstr. 46,14109,
,DIORIT-Grundstücksges.mbH Hausverwaltung,Berlin-Kreuzberg,Mehringdamm 57,10961,
,DOGA Generalübernehmer- u. Verwaltungsgesellschaft mbH,Berlin-Friedenau,Handjerystr. 37,12159,
,Döhler GmbH & Co KG,Berlin-Grunewald,Hubertusallee 17A,14193,
,Donig Pedro Hausverwaltung,Berlin-Westend,Kastanienallee 26,14052,
,"""Dorfaue"" Grundstücks GmbH & Co. Verwaltungs KG Grundstücksverwaltung",Berlin-Zehlendorf,Teltower Damm 15,14169,
,Dr. Gop Klingsöhr Grundstücksverwaltungs mbH Venus Properties S.A.R.L,Berlin-Mitte,Linienstr. 98,10115,
,Dursthoff Thomas Hausverwaltung,Berlin-Tiergarten,Putlitzstr. 21,10551,
,Dwertmann Bernd Ulrich Hausverwaltung,Berlin-Wilmersdorf,Wilhelmsaue 138,10715,
,Eckhold Mario Hauswartung,Berlin-Moabit,Levetzowstr. 22,10555,
,Edelstein Menachem,Berlin-Charlottenburg,Kurfürstendamm 235,10719,
,Edge Hausverwaltung,Berlin-Zehlendorf,Riemeisterstr. 105,14169,
,Eichendorffstr. 4 Grundstücks GmbH,Berlin-Mitte,Eichendorffstr. 17,10115,
,Eichmann und Harnisch Grundbesitzverwaltung GmbH,Berlin-Charlottenburg,Philippistr. 9,14059,
,Elbing Gudrun Hausverwaltung,Berlin-Charlottenburg,Richard-Wagner-Str. 51,10585,
,elm place property GmbH & Co.,Berlin-Mitte,Kleine Auguststr. 4A,10119,
,Engelmann Haus- und Grundstücksverwaltung,Berlin-Grunewald,Hubertusallee 36,14193,
,F.D.B. Verwaltungs GmbH Haus- und Grundstücksverwaltungen,Berlin-Charlottenburg,Kaiserin-Augusta-Allee 49,10589,
,Fasano GmbH,Berlin-Nikolassee,Von-Luck-Str. 10,14129,
,Felsner Joachim BauGesch. HausVerw.,Berlin-Wilmersdorf,Pariser Str. 58,10719,
,Fidato Hausverwaltung GmbH Hausvervaltung,Berlin-Friedrichshain,Markgrafendamm 24Haus18,10245,
,Fides Liegenschaftsverwaltung,Berlin-Wilmersdorf,Emser Str. 9,10719,
,Finke Karl-Heinz Hausverwaltung,Berlin-Schmargendorf,Charlottenbrunner Str. 24,14193,
,Fischer Michael Dipl.-Ing.,Berlin-Hermsdorf,Ringstr. 25,13467,
,Florez GmbH & Co KG,Berlin-Wannsee,Straße zum Löwen 17,14109,
,format Hausverwaltungen GmbH,Berlin-Charlottenburg,Uhlandstr. 28,10719,
,Fortera Hausverwaltung,Berlin-Mitte,Alte Jakobstr. 78,10179,
,Fox Eugen Hausverwaltung,Berlin-Rudow,Söderblomweg 93,12355,
,Fox & Görlitz Immobilienmanagement GmbH,Berlin-Charlottenburg,Röntgenstr. 12,10587,
,Frenz Hausverwaltungen Hausverwaltungen,Berlin-Rudow,Mimosenweg 40,12357,
,Friegenie GmbH,Berlin-Wilhelmsruh,Kurze Str. 4,13158,
,Funka Hausverwaltung,Berlin-Tiergarten,Pohlstr. 79,10785,
,G.U.T GmbH,Berlin-Schöneberg,Eisenacher Str. 11A,10777,
,Gallus Hausverwaltung - Immobilien,Berlin-Schöneberg,Begasstr. 10,12157,
,Gatzka Martin Hausverwaltung,Berlin-Wilmersdorf,Hohenzollerndamm 5,10717,
,Gawehn G. Grundstücksverwaltung GmbH,Berlin-Schöneberg,Peter-Vischer-Str. 2,12157,
,GCI-Grund-Consult Immobilien GmbH Grundstücksverwaltung,Berlin-Westend,Hessenallee 12,14052,
,Gecasa Hausverwaltung GbR,Berlin-Buckow,Alt-Buckow 29,12349,
,GEG Grundstücksentwicklungsgesellschaft Körnerstr. 11-13 mbH,Berlin-Niederschönhausen,Friedrich-Engels-Str. 12,13156,
,Genossenschaft Luisenstadt e.G.,Berlin-Kreuzberg,Mariannenstr. 48,10997,
,Gerhard Meissner Hausverwaltung GmbH,Berlin-Lichterfelde,Goerzallee 15,12207,
,Gerlach Manfred Haus- und Grundstücksverwaltungen,Berlin-Charlottenburg,Kaiser-Friedrich-Str. 4A,10585,
,Germandia GmbH,Berlin-Lichterfelde,Lermooser Weg 35,12209,
,Gesellschaft für umweltfreundliches Bauen GmbH,Berlin-Reinickendorf,Schwabstedter Weg 30B,13503,
,Goldmann-Nörenberg Haus- und Grundstücksverwaltung,Berlin-Tegel,Grußdorfstr. 13,13507,
,Görner Renate Haus-Wohnungsverw.,Berlin-Tempelhof,Tempelhofer Damm 129,12099,
,Grabenhorst Verwaltungs GmbH Haus- und Grundstücksverwaltungen,Berlin-Halensee,Katharinenstr. 8.,10711,
,Gräflich Görtzische Liegenschaftsverwaltung zu Berlin,Berlin-Reinickendorf,Auguste-Viktoria-Allee 99- 100,13403,
,Grobe Klaus Hausverwaltung,Berlin-Spandau,Breite Str. 35,13597,
,Gronenberg Falk Hausverwaltung,Berlin-Neukölln,Flughafenstr. 46,12053,
,Gross Hans-Joachim,Berlin-Charlottenburg,Eosanderstr. 31,10587,
,Grothe Ku'damm-Eck KG,Berlin-Charlottenburg,Augsburger Str. 44,10789,
,Grundstücksgesellschaft Prenzlauer Allee 5 (GbR),Berlin-Prenzlauer Berg,Prenzlauer Berg 8,10405,
,Grundstücksgesellschaft Wittestraße 46 GmbH & Co. KG,Berlin-Tegel,Wittestr. 46,13509,
,Grundstucksverwaltung Reith GmbH,Berlin-Köpenick,Birkenstr. 15B,12559,
,"Grüttner, Bruno, Grundstücksverwaltungen Immobilien e. K.",Berlin-Schöneberg,Martin-Luther-Str. 78,10825,
,Gumenski Günter Hausverwaltung,Berlin-Charlottenburg,Lindenallee 34,14050,
,GVVG Gesellschaft für Verwaltung und Vermietung von Grundbesitz mbH & Co KG,Berlin-Kreuzberg,Liegnitzer Str. 15,10999,
,H & G - Verwaltung,Berlin-Friedenau,Roennebergstr. 3,12161,
,Habener Hartmut Büro 2000 Hausverwaltung,Berlin-Rummelsburg,Lückstr. 21,10317,
,habitar Hausverwaltungs GmbH Hausverwaltung,Berlin-Charlottenburg,Darwinstr. 1,10589,
,Hager & Klewer Hausverwaltung,Berlin-Wilmersdorf,Regensburger Str. 9,10777,
,Hahn R. u. W. Hausverwaltung,Berlin-Rudow,Arnikaweg 24,12357,
,Hahn Thomas Hausverwaltung,Berlin-Rudow,Zwickauer Damm 162,12355,
,Halbsgut Gerd Hausverwaltung,Berlin-Tempelhof,Tempelhofer Damm 228,12099,
,Half Fritz Hausverwaltung,Berlin-Schöneberg,Gustav-Müller-Str. 43,10829,
,HaMaBe - Hausmanagement Berlin oHG,Berlin-Steglitz,Bismarckstr. 17A,12169,
,Hansa Grundstücksverwaltungsgesellschaft mbH,Berlin-Wilhelmstadt,Jaczostr. 62,13595,
,Haufe Hausverwaltung,Berlin-Heiligensee,Kurzebracker Weg 4,13503,
,Hauschild Christian Hausverwaltung,Berlin-Dahlem,Max-Eyth-Str. 23,14195,
,Hausplus Verwaltungsgesellschaft mbH,Berlin-Schmargendorf,Hohenzollerndamm 125-126,14199,
,Hausverwaltung Henseleit,Berlin-Charlottenburg,Angerburger Allee 3,14055,
,Hausverwaltung Hiller GmbH,Berlin-Schöneberg,Landshuter Str. 18,10779,
,Hausverwaltung Inh. Harald Keseberg Hausverwaltung CO NB,Berlin-Britz,Britzer Damm 106,12347,
,Hausverwaltung Milkowsky,Berlin-Westend,Tapiauer Allee 36,14055,
,Hausverwaltung Reitzlein GmbH Haus- und Grundstücksverwaltungen,Berlin-Mitte,Ohmstr. 9,10179,
,"Hausverwaltung Wonneberg (Bürogemeinschaft), Haus- und Grundstücksverwaltungen",Berlin-Tempelhof,Friedrich-Franz-Str. 47,12103,
,Havemann Susann Hausverwaltung,Berlin-Bohnsdorf,Dorfplatz 7,12526,
,HDS Hausdienst GmbH,Berlin-Prenzlauer Berg,Schönhauser Allee 118,10437,
,Heidrich Manuel,Berlin-Lichterfelde,Weißwasserweg 2A,12205,
,Heinz Ziggel KG Grundstücksverwaltung,Berlin-Steglitz,Wrangelstr. 6,12165,
,Heise Ines Hausverwaltung,Berlin-Schöneberg,Nymphenburger Str. 2,10825,
,Hengelhaupt-Reimann Annelie Hausverwaltungsbüro,Berlin-Wilmersdorf,Sächsische Str. 4,10707,
,Hennecke Kristin Hausverwaltung,Berlin-Prenzlauer Berg,Rodenbergstr. 2,10439,
,Herden Hausverwaltung,Berlin-Oberschöneweide,Rathenaustr. 10,12459,
,Hertzsprung Hausverwaltung,Berlin-Lichterfelde,Roonstr. 36,12203,
,Hetsch Angelika Hausverwaltung,Berlin-Lichterfelde,Lindenstr. 8,12207,
,HIGO GmbH Hausverwaltung,Berlin,Marienburger Allee 12,14055,
,HIH Property Management Haus- und Grundstücksverwaltungen,Berlin-Tiergarten,Potsdamer Platz 10,10785,
,Hildebrandt Brigitte Haus- und Grundstücksverwaltungen,Berlin-Steglitz,Maulbronner Ufer 44,12247,
,HKL Schönberg e.K.,Berlin-Mitte,Universitätsstr. 2,10117,
,HMH Haus- und Vermögensverwaltung GmbH Haus- und Grundstücksverwaltungen,Berlin-Köpenick,Kaulsdorfer Str. 295,12555,
,Hoberg & Reiche Hausverwaltung GmbH,Berlin-Wilmersdorf,Prager Str. 7,10779,
,Hoffmann Christiane Hausverwaltung,Berlin-Dahlem,Auf dem Grat 31,14195,
,Hoffmann D. Hausverwaltung,Berlin-Spandau,Grünhofer Weg 16-18,13581,
,Hoffmann Rüdiger Dipl.-Kam. Hausverwaltung,Berlin-Dahlem,Auf dem Grat 41A,14195,
,Hoffmann Wolfgang Hausverwaltung,Berlin-Lichterfelde,Kadettenweg 71,12205,
,Höhne Hausverwaltung,Berlin-Charlottenburg-Wilmersdorf,Lietzenseeufer 4,14057,
,Holm Hausverwaltung,Berlin-Lichterfelde,Drakestr. 63,12205,
,HOLOS Immobilien GmbH,Berlin-Kreuzberg,Bergmannstr. 106,10961,
,Hörder Willi Hausverwaltung,Berlin-Zehlendorf,Hermannstr. 11,14163,
,Horstmann GbR Wolfgang u. Hendrik Grundstücksverwaltung,Berlin-Niederschöneweide,Schnellerstr. 83,12439,
,HSI GmbH,Berlin-Lichtenberg,Rhinstr. 105,10315,
,Huber Helmuth Hausverwaltung,Berlin-Nikolassee,Inselstr. 32A,14129,
,IHW Grundstücksgesellschaft mbH,Berlin-Westend,Eichenallee 40,14050,
,IKAR Grundstücksverwaltung,Berlin-Mariendorf,Eisenacher Str. 1,12109,
,ilex Hausverwaltungsgesellschaft mbH,Berlin-Biesdorf,Husumer Str. 10,12683,
,Imperium Hausverwaltung,Berlin-Wilhelmsruh,Beethovenstr. 3,13158,
,Intact Immobilien GmbH,Berlin,Breitenbachplatz 10,14195,
,J & P IHausverwaltungs GmbH,Berlin-Mitte,Friedrichstr. 148,10117,
,Jahning B. und Siebert D. GbR Hausverwaltung,Berlin-Schöneberg,Kalckreuthstr. 4,10777,
,Jeschke Christa Grundstücksverwaltung,Berlin-Charlottenburg,Röntgenstr. 4,10587,
,Jeserich Ingenieurbüro für Haustechnik,Berlin-Spandau,Jüdenstr. 26,13597,
,Jos. Steiner GmbH Haus- und Grundstücksverwaltung,Berlin-Charlottenburg,Gervinusstr. 4,10629,
,Kadler H. Haus- u. Grundstücksverwaltung,Berlin-Schöneberg,Gutzkowstr. 9,10827,
,Kandeler Hausverwaltung,Berlin-Frohnau,Senheimer Str. 52,13465,
,Karolewicz Sigrid,Berlin-Westend,Heerstr. 135,14055,
,Kerstan Ute Hausverwaltung,Berlin-Kreuzberg,Gneisenaustr. 88,10961,
,KGH Grundbesitz GmbH Grundstücksverwaltungen,Berlin-Weißensee,Behaimstr. 8,13086,
,Kielmann Klaus Dipl.-Ing. HausVerw.,Berlin-Spandau,Körnerstr. 5,13585,
,Kincaid Rosemarie Hausverwaltung,Berlin-Westend,Eichkampstr. 66,14055,
,Kirchner & Freund Hausverwaltung,Berlin-Prenzlauer Berg,Choriner Str. 60,10435,
,Kirchner GmbH & Co. KG,Berlin-Reinickendorf,Scharnweberstr. 14,13405,
,"Kirner, Theresia u. Siegfried Emuth Hausverwaltung",Berlin-Neukölln,Altenbraker Str. 14,12053,
,Kisiel A. J. Hausverwaltung,Berlin-Charlottenburg,Grolmanstr. 23,10623,
,Klimek und Fuhrmann GbR Rechtsanwälte,Berlin-Friedrichshain,Sonntagstr. 25,10245,
,KLIMIK GmbH Baubüro,Berlin-Friedrichshain,Kochhannstr. 39,10249,
,Klinke Brigitte Dr. Hausverwaltung,Berlin-Fennpfuhl,Rudolf-Seiffert-Str. 2,10369,
,Kluge,Berlin,,,
,"Knack, Alexander u. Gabriele Hausverwaltung",Berlin-Rahnsdorf,Rialtoring 94,12589,
,Knetsch J. Hausverwaltung,Berlin-Biesdorf,Schackelsterstr. 45,12683,
,Koch Gabriele Haus- und Grundstücksverwaltung,Berlin-Schöneberg,Kurfürstenstr. 114,10787,
,Koerfer Marthina Hausverwaltung,Berlin-Dahlem,Bitterstr. 23,14195,
,Köhler Klaus Hausverwaltung,Berlin,Händelallee 7,10557,
,Konsens Hausverwaltung,Berlin-Köpenick,Grünauer Str. 5,12557,
,Kontor Hausverwaltung,Berlin-Kreuzberg,Dresdener Str. 19,10999,
,Konzepta Grundstücksgesellschaft mbH,Berlin-Grunewald,Menzelstr. 17,14193,
,Koska Hausverwaltung GbR Hausverwaltung,Berlin-Westend,Spandauer Damm 119,14050,
,Kowalski Abraham Grundstücksgesellschaft,Berlin-Spandau,Breite Str. 30,13597,
,Kreienschulte Hausverwaltung,Berlin-Grunewald,Koenigsallee 68,14193,
,Krüger Michael W. Hausverwaltung,Berlin-Wilmersdorf,Siegburger Str. 9,14197,
,KSS Verwaltungs GmbH,Berlin-Märkisches Viertel,Dannenwalder Weg 192,13439,
,Kuhles Hausverwaltung,Berlin-Tempelhof,Wenckebachstr. 7,12099,
,Kühn Hausverwaltung,Berlin-Schöneberg,Ansbacher Str. 35,10789,
,Kühnisch & Partner GmbH Hausverwaltung,Berlin-Kreuzberg,Paul-Lincke-Ufer 5,10999,
,Kunst Rainer Hausverwaltung,Berlin-Konradshöhe,Waldkauzstr. 13A,13505,
,Kur Hausverwaltung,Berlin-Reinickendorf,Graf-Haeseler-Str. 3A,13403,
,Kurtzke Sven Immobilien Grundstücksverwaltung,Berlin-Weißensee,Langhansstr. 83A,13086,
,Kutschbach Hausverwaltung,Berlin-Buckow,Rudower Str. 131,12351,
,LAHO Landart GmbH & Co. KG,Berlin-Pankow,Pestalozzistr. 5,13187,
,Langhoff'sche Hausverwaltung KG,Berlin-Schöneberg,Winterfeldtstr. 1,10781,
,LAUDAN Achte Gmbh & Co. KG,Berlin-Tiergarten,Clara-Wieck-Str. 11,10785,
,Lehmann Wulf Hausverwaltung,Berlin-Lichterfelde,Dürerstr. 41,12203,
,Leinau Wolfgang,Berlin-Lankwitz,Brigittenstr. 12,12247,
,Leopold Center Verwaltungsgesellschaft mbH,Berlin-Wilmersdorf,Brandenburgische Str. 27,10707,
,Lindner Wohnbauten GmbH,Berlin-Lichterfelde,Schillerstr. 22,12207,
,Lira Grundstücksverwaltungs-GmbH Immobilien,Berlin-Lichtenrade,Schwalbachstr. 46A,12305,
,Lissner,Berlin-Schöneberg,Traunsteiner Str. 3,10781,
,Lochmann Consulting,Berlin,Ulricistr. 32,14109,
,Löwen Hausverwaltung GmbH,Berlin-Tiergarten,Waldstr. 15,10551,
,Lühr Hausverwaltung,Berlin-Britz,Britzer Damm 106,12347,
,Lutz Eike Dipl.-Ing. (FH) Immobilien,Berlin-Steglitz,Deitmerstr. 9A,12163,
,Magen Sacha Andre Hausverwaltung und Immobilien,Berlin-Prenzlauer Berg,Esmarchstr. 11,10407,
,Maire Hausverwaltung,Berlin-Steglitz,Schloßstr. 117,12163,
,MAREAL Grundstücks GmbH,Berlin-Schöneberg,Bülowstr. 27,10783,
,Martin Grundstücksverwaltung,Berlin-Wilhelmsruh,Edelweißstr. 27,13158,
,Matthesius-Amann Antje Hausverwaltung,Berlin-Steglitz,Forststr. 30,12163,
,Mayrl J. Hausverwaltung,Berlin-Prenzlauer Berg,Christburger Str. 12,10405,
,Mehnert Horst Hausverwaltung,Berlin-Lankwitz,Blankenhainer Str. 8,12249,
,Meinecke Ruth Hausverwaltung,Berlin-Pankow,Mühlenstr. 2,13187,
,Merzenich Helmut,Berlin,Elberfelder Str. 32,10555,
,Metron Grundstücksgesellschaft mbH,Berlin-Prenzlauer Berg,Schönhauser Allee 48,10437,
,Metternich Grundstücksverwaltung GbR,Berlin-Schöneberg,Geisbergstr. 39,10777,
,Meyer A. Hausverwalter,Berlin-Nikolassee,Edwin-C.-Diltz-Str. 12,14163,
,"Meyer, Adolf & Ralf GbR",Berlin-Reinickendorf,Flottenstr. 60,13407,
,Meyer Hans-Joachim Dipl.-Kfm. Hausverwaltung,Berlin-Wannsee,Braschzeile 5,14109,
,Mietkonzept Gewerbe- und Hausverwaltungsges. mbH,Berlin-Alt-Treptow,Plesser Str. 6,12435,
,MK-Hausverwaltung,Berlin-Charlottenburg,Wilmersdorfer Str. 13,10585,
,Morgenroth Thomas Hausverwaltung,Berlin-Zehlendorf,Michendorfer Str. 10,14165,
,Morgenstern & Mayer GbR Grundstücksentwicklung,Berlin-Staaken,Nennhauser Damm 150,13591,
,Mosch Christa,Berlin-Wilmersdorf,Nachodstr. 24,10779,
,Mosig Büro,Berlin-Marienfelde,Welterpfad 78,12277,
,Mrosek Rainer Hausverwaltung,Berlin-Rudow,Groß-Ziethener-Chaussee 18,12355,
,"Mücke, Gisela GmbH & Co. KG",Berlin-Grünau,Dahmestr. 1,12527,
,Mulka Utz Hausverwaltung,Berlin-Marzahn,Bärensteinstr. 8,12685,
,Müller C. Wohnungsverwaltung,Berlin-Schöneberg,Regensburger Str. 3,10777,
,Müller Reinhard Haus- und Grundstücksverwaltung,Berlin-Gesundbrunnen,Wattstr. 10,13355,
,Murru G. Living-Immobilien Hausverwaltung,Berlin-Charlottenburg,Zillestr. 111,10585,
,Nachmann Marina Haus- und Grundstücksverwaltungen,Berlin-Prenzlauer Berg,Stargarder Str. 6,10437,
,Nather Renate Dr. Hausverwaltung,Berlin-Tempelhof,Burgemeisterstr. 63A,12103,
,Naumann Oliver Hausverwaltung,Berlin-Lichterfelde,Patschkauer Weg 3,14195,
,Neubo Hausverwaltung GmbH & Co. Betriebs-KG,Berlin-Wilhelmsruh,Hauptstr. 52,13158,
,Neue Gartenheim GmbH Hausverwaltungen,Berlin-Steglitz,Attilastr. 87D,12247,
,"""Neue Thomashof"" Grundstücks-GmbH & Co. KG",Berlin-Gesundbrunnen,Ernst-Reuter-Siedlung 15,13355,
,Obis Hausverwaltung Hausverwaltung,Berlin-Charlottenburg,Kaiserdamm 100,14057,
,Offizier N. Hausverwaltung,Berlin-Schmargendorf,Hohenzollerndamm 89,14199,
,Omnium Grundstücksverwaltung GmbH,Berlin-Kreuzberg,Methfesselstr. 50,10965,
,Optimus Hausverwaltung GmbH,Berlin-Niederschönhausen,Wackenbergstr. 90,13156,
,Ordas Grundstücksverw.GmbH,Berlin-Friedenau,Goßlerstr. 20,12161,
,P.I.P. Phoenix-International-Investment-GmbH,Berlin-Reinickendorf,Ollenhauerstr. 14,13403,
,Paetel Erika Grundstücksverwaltung,Berlin-Halensee,Eisenzahnstr. 62,10709,
,Pakowski Christa Hausverwaltung,Berlin-Waidmannslust,Dianastr. 39A,13469,
,Paterok Edmund Erben Hausverwaltung,Berlin-Charlottenburg,Bleibtreustr. 40,10623,
,Paul Hausverwaltung,Berlin-Buckow,Alt-Buckow 6,12349,
,Pegasus Grundstücksentwicklung und Beteiligung GmbH & Co. KG,Berlin-Mitte,Alexanderstr. 7,10178,
,Pema-Grundstücksgesellschaft mbH,Berlin-Steglitz,Schloßstr. 1,12163,
,Peters Inga Hausverwaltung,Berlin-Nikolassee,Tristanstr. 4A,14109,
,Phidias Hausverwaltungen GmbH,Berlin-Tiergarten,Waldstr. 17,10551,
,Phoenix Haus- u. Grundstücksverwaltungs GmbH,Berlin-Charlottenburg,Reichsstr. 93,14052,
,Pommerenke Arno Hausverwaltung,Berlin-Charlottenburg,Leonhardtstr. 10,14057,
,Pontow Heinz Grundstücksverwaltung GmbH,Berlin-Schöneberg,Innsbrucker Str. 45,10825,
,Popp Wolfram Hausverwaltung,Berlin-Kreuzberg,Möckernstr. 65,10965,
,Pötzl Ursula Hausverwaltung,Berlin-Wilmersdorf,Badensche Str. 13,10715,
,Praetorius Michael,Berlin-Tempelhof,Alt- Tempelhof 34,12103,
,Premura Hausverwaltung GmbH Hausverwaltung,Berlin-Steglitz,Markelstr. 7,12163,
,Pries Hausverwaltung,Berlin-Prenzlauer Berg,Prenzlauer Allee 36,10405,
,PRIMO Grundstücks GmbH & Co.KG,Berlin-Dahlem,Clayallee 177,14195,
,PropertyOne GmbH,Berlin-Mitte,Michaelkirchstr. 17,10179,
,Pucka Ines,Berlin-Prenzlauer Berg,Greifswalder Str. 23,10405,
,Puhlmann Kerstin Hausverwaltung,Berlin-Lichterfelde,Koloniestr. 3,12209,
,Rakow Annelies Hausverwaltung,Berlin-Schmargendorf,Weinheimer Str. 19,14199,
,Reinhart Hausverwaltung,Berlin-Friedenau,Handjerystr. 67,12159,
,Rimbach Hausverwaltung,Berlin-Schmargendorf,Hohenzollerndamm 87,14199,
,Ritter Wolf-Dieter u. Klaus,Berlin-Pankow,Florastr. 66,13187,
,Roggenbuck Klaus Hausverwaltung,Berlin-Wilmersdorf,Blüthgenstr. 2,10709,
,Rose Hausverwaltung,Berlin-Wedding,Reinickendorfer Str. 115,13347,
,Röseke Hausverwaltung,Berlin-Schöneberg,Salzburger Str. 10A,10825,
,Rösler-Neumann Sigrid Hausverwaltung,Berlin-Hermsdorf,Frohnauer Str. 30,13467,
,Rother Verwaltungs GbR Hausverwaltung,Berlin-Wilmersdorf,Zähringerstr. 11-12,10707,
,Rothkowski Sigrid,Berlin-Falkenhagener Feld,Schnepfenreuther Weg 37,13587,
,Rotro Hausservice GmbH,Berlin-Lichterfelde,Lorenzstr. 10,12209,
,Ruddeck Karin Hausverwaltung,Berlin-Zehlendorf,Machnower Str. 69,14165,
,Sahin Immobilien Hausverwaltung,Berlin-Spandau,Feldstr. 48,13585,
,Sähn Nicolaus Hausverwaltung,Berlin-Schmargendorf,Caspar-Theyß-Str. 22,14193,
,Salmayer Anchello Hausverwaltung,Berlin-Charlottenburg,Fasanenstr. 3,10623,
,Sapienta Grundbesitz- und Immobilienvermittlungs GmbH,Berlin-Charlottenburg,Mindener Str. 21,10589,
,Saxum Berlin GmbH Haus- und Grundstücksverwaltungen,Berlin-Lichtenberg,Rhinstr. 107,10315,
,Schaller Hausverwaltung,Berlin-Lichterfelde,Gardeschützenweg 76,12203,
,Schaller Karl Hausverwaltung,Berlin-Zehlendorf,Berliner Str. 23,14169,
,Schenck Martina Haus- und Grundstücksverwaltungen,Berlin-Zehlendorf,Onkel-Tom-Str. 142,14169,
,Schiebeler Christine Hausverwaltung,Berlin-Charlottenburg,Waitzstr. 3,10629,
,Schier Hausverwaltung,Berlin-Lichterfelde,Goerzallee 117,12207,
,Schimpf GmbH,Berlin-Charlottenburg,Dernburgstr. 59,14057,
,Schloss Hans-Werner Dipl.-Ing. HausVerw. BauBerat.,Berlin-Dahlem,Schweinfurthstr. 86,14195,
,Schmidt,Berlin-Konradshöhe,Tannenhäherstr. 27,13505,
,Schmidt Edith Hausverwaltung,Berlin,Alt-Gatow 14A,14089,
,Schmidt Günther Hausverwaltung,Berlin-Schöneberg,Kyffhäuserstr. 4,10781,
,Schmidt H. Joachim Hausverwaltung,Berlin-Spandau,Klosterstr. 16,13581,
,Schmidt-Just Horst Haus- und Grundstücksverwaltung,Berlin-Zehlendorf,Salzachstr. 39,14129,
,Schmidt Maria,Berlin-Wannsee,Am Großen Wannsee 19,14109,
,Scholdra Haus- und Grundstücksgesellschaft mbH & Co.KG,Berlin-Wilmersdorf,Olivaer Platz 3,10707,
,Schönenborn Haus - und Grundstückservice,Berlin-Bohnsdorf,Wohlauer Str. 33,12526,
,Schröter D. GmbH Immobilien und Verwaltung,Berlin-Schöneberg,Ansbacher Str. 62,10777,
,"Schubert H. Verwaltung, Haus- und Grundstücksverwaltungen",Berlin-Reinickendorf,Dahnstr. 4,13403,
,Schwiegershausen Horst,Berlin-Schöneberg,Freiherr-vom-Stein-Str. 12,10825,
,"Seligmann GmbH & Co Verwaltungs KG, Kurt HausVerw. u. Yachtcharter",Berlin-Neukölln,Flughafenstr. 79,12049,
,Sensal Grundstücksgesellschaft mbH,Berlin-Lichterfelde,Celsiusstr. 62,12207,
,SHBi Hausverwaltungen GmbH,Berlin-Wilmersdorf,Babelsberger Str. 6,10715,
,SHV Stein & Haus Verwaltungs-GmbH,Berlin-Schmargendorf,Auguste-Viktoria-Str. 31,14193,
,Sieber Andreas Hausverwaltung,Berlin-Waidmannslust,Oraniendamm 26,13469,
,Sielecki Horst Hausverwaltung,Berlin-Halensee,Johann-Georg-Str. 17,10709,
,Sino View Properties Ltd.,Berlin-Prenzlauer Berg,Christinenstr. 18,10119,
,Spreewelle Grundstücksverwaltungs-GmbH,Berlin-Neukölln,Dieselstr. 35,12057,
,Stadtboden Grundstücks GmbH & Co Betriebs KG,Berlin-Charlottenburg,Meinekestr. 7,10719,
,Stech Sebastian Dipl.-Kfm. Immobilienmanagement,Berlin-Borsigwalde,Conradstr. 28,13509,
,Steinacker U. Hausverwaltung,Berlin-Wilmersdorf,Pariser Str. 7,10719,
,Steinke Klaus Hausverwaltung,Berlin-Britz,Britzer Damm 36,12347,
,Stelling Günter Schmarge 32 Hausverwaltung,Berlin-Friedenau,Schmargendorfer Str. 32,12159,
,Stelter Edmund Dipl.-Ing. Grundstücksverwaltung,Berlin-Dahlem,Boltzmannstr. 21,14195,
,Stern Verwaltungsges. f. Geschäfts- u. Wohnbauten mbH & Co. KG,Berlin-Charlottenburg,Kurfürstendamm 59,10707,
,Stolle Monika Hausverwaltung,Berlin-Wilhelmstadt,Wilhelmstr. 144,13595,
,Storck Gerhard Hausverwaltung,Berlin-Buckow,Goldammerstr. 62,12351,
,Strahl B. Hausverwaltung,Berlin-Schmargendorf,Sulzaer Str. 13,14199,
,Stutenbecker Harald Hausverwaltung,Berlin-Schöneberg,Bozener Str. 9,10825,
,Südstern Grundstücksverw.- u. Bauträger GmbH Haus- und Grundstücksverwaltung,Berlin-Neukölln,Reuterstr. 38,12047,
,Taheri Darius Hausverwaltung,Berlin-Kladow,Wisserweg 9,14089,
,Taubert Uwe Haus- und Grundstücksverwaltung,Berlin-Prenzlauer Berg,Bornholmer Str. 75,10439,
,Thelen Hausverwaltung GmbH,Berlin-Charlottenburg,Meinekestr. 24,10719,
,Thienhaus Hugo Grundstücksverwaltungs GmbH,Berlin-Westend,Insterburgallee 15,14055,
,Titze Hausverwaltung,Berlin-Zehlendorf,Martin-Buber-Str. 12,14163,
,Torsten Luschnat Immobilien e. Kfm.,Berlin-Mitte,Friedrichstr. 95,10117,
,Treptau Gisela Hausverwaltung,Berlin-Friedrichshain,Frankfurter Allee 61,10247,
,Tribull Hausverwaltungen GmbH,Berlin-Lankwitz,Sondershauser Str. 47A,12249,
,V+F Grundstücksentwicklungs- und Verwaltungs GmbH,Berlin-Alt-Hohenschönhausen,Gärtnerstr. 17,13055,
,Vabene Hausverwaltung GmbH Hausverwaltung,Berlin-Friedenau,Lauterstr. 17,12159,
,VauHaGe Verwaltungsgesellschaft für Haus und Grundbesitz mbH Verwaltungsgesellschaft,Berlin-Lankwitz,Teltowkanalstr. 1,12247,
,VECA Consult GmbH Hausverwaltung,Berlin-Tempelhof,Rumeyplan 52,12101,
,Vering Waechter Verwaltungs GmbH,Berlin-Kreuzberg,Dieffenbachstr. 69,10967,
,VGB Verwaltung f. Grundbesitz GmbH & Co. Landhausstraße KG,Berlin-Wilmersdorf,Landhausstr. 19,10717,
,VHB Grundstücksverwaltungsges.Haus-u.Boden-Fonds mbH Grundstücksverwaltung,Berlin-Moabit,Sickingenstr. 26,10553,
,Vita Hausverwaltung UG (haftungsbeschränkt),Berlin-Zehlendorf,Clayallee 250,14169,
,Vogel & Partner Grundstücksgesellschaft mbH,Berlin-Grunewald,Koenigsallee 9a,14193,
,Vogt Hausverwaltung,Berlin,Friedbergstr. 12,14057,
,Vollmar Hausverwaltung,Berlin-Spandau,Seeburger Str. 32D,13581,
,VVW Vermögensverwaltung GmbH & Co KG Hausverwaltung,Berlin-Charlottenburg,Neue Kantstr. 15,14057,
,Waldi GmbH Hausverwaltung,Berlin-Schöneberg,Hauptstr. 93,12159,
,Walter Marianne Hausverwaltung,Berlin-Britz,Hochkönigweg 44,12349,
,Weber Peter Hausverwaltung,Berlin-Charlottenburg,Kantstr. 54,10627,
,Wegener Monika Hausverwaltungen,Berlin-Schöneberg,Apostel-Paulus-Str. 28,10823,
,Wehner Ilse HausVerw.,Berlin-Lichterfelde,Margaretenstr. 19e,12203,
,Weingartner Albert Hausverwaltung,Berlin-Lichterfelde,Lermooser Weg 34,12209,
,Weingartner Hausverwaltung,Berlin-Schöneberg,Courbièrestr. 8,10787,
,Weiß Friedrich GmbH & Co. KG,Berlin-Gesundbrunnen,Pankstr. 71,13357,
,Weller Bernd Hausverwaltung,Berlin-Mariendorf,Goldenes Horn 66,12107,
,Wendenschloß Grundstücksgesellschaft mbH & Co. KG,Berlin-Köpenick,Wendenschloßstr. 366,12557,
,Werner K. Hausverwaltung,Berlin-Spandau,Flankenschanze 9,13585,
,Westfalia Schmeer Immobilienverwaltung,Berlin-Schöneberg,Nollendorfplatz 5,10777,
,Weymaks Wohnungseigentums- und Hausverwaltung,Berlin-Fennpfuhl,Möllendorffstr. 49,10367,
,Wierzchowski Horst Hausverwaltung,Berlin-Reinickendorf,Bürgerstr. 6,13409,
,Wietecki Peter Hausverwaltung,Berlin-Lichterfelde,Curtiusstr. 10,12205,
,Wilisch Jürgen Grundstücksverwaltung,Berlin-Steglitz-Zehlendorf,Reutlinger Str. 1A,12247,
,Willemeit Hausverwaltung,Berlin-Westend,Lindenallee 35,14050,
,Winkens Monika Hausverwaltung,Berlin-Friedrichshain,Richard-Sorge-Str. 34,10249,
,Winks Michael Hausverwaltung,Berlin-Niederschönhausen,Rolandstr. 105,13156,
,Winter Richard Nachf. OHG  Vermietung u.Verpachtung v. Grundst,Berlin-Mariendorf,Faulhornweg 5A,12107,
,Wolf Hagen Hausverwaltung,Berlin-Dahlem,Musäusstr. 4,14195,
,Wolff Manfred Grundstücks- und Vermögensverwaltung,Berlin-Mitte,Ohmstr. 8,10179,
,Wollenhaupt Hausverwaltung,Berlin-Prenzlauer Berg,Greifenhagener Str. 49,10437,
,Worema Grundstücksgesellschaft mbH Hausverwaltung,Berlin-Heiligensee,Alt-Heiligensee 73-75,13503,
,Wudtke Haus- u. Vermögensverwaltung GmbH Haus- und Grundstücksverwaltungen,Berlin-Charlottenburg,Schlüterstr. 41,10707,
,Wünsch Gerhard Hausverwaltung,Berlin-Wannsee,Endestr. 9,14109,
,WVG Wohnbau - Verwaltungs GmbH Haus- und Grundstücksverwaltung,Berlin-Wilmersdorf,Sigmaringer Str. 17A,10713,
,Z.E.I.T. Investitionsgesellschaft mbH,Berlin-Charlottenburg,Knesebeckstr. 74,10623,
,Zschächner Günter Wolfgang Hausverwaltung,Berlin-Mitte,Karl-Marx-Allee 5,10178,
,BEGV Berliner Grundstücksverwaltung,,,,
,Breitkopf Hausverwaltung,,,,
,Doege Hardo,Berlin,,12107,
,Dreißig Hausverwaltungen und Immobilien,Berlin,,12103,
,Dudzik Sabine Hausverwaltungen,Berlin,,14195,
,Forum Stadthaus Grundstücksgesellschaft mbH Grundstücksverwaltung,,,,
,Gerecke u. Happe Hausverwaltung,,,,
,GVA Hausverwaltung AG,,,,
,Hauer GmbH & CO. KG,,,,
,Hausverwaltung MB Berlin Hausverwaltung,,,,
,Heyroth Angela Hausverwaltung,Berlin,,12209,
,Huber-Hausverwaltung,,,,
,Kiekebusch Hausverwaltung,,,,
,Kijewski Hausverwaltung,,,,
,Kremer Hausverwaltungen GmbH,Berlin,,14059,
,Ludwig Hausverwaltung,Berlin,,13581,
,Marschall von Bieberstein,,,,
,Nierke-Lambrecht Hausverwaltung,Berlin,,12309,
,Reinicke Hausverwaltung,,,,
,Seydlitz-Kurzbach von ISE Hausverwaltung,Berlin,,12203,
,Sicker,Berlin,,12524,
,Thiess Hausverwaltung,,,,
,Woitinek Ruth Haus- und Grundstücksverwaltungen,,Sedanstr. 43,,
http://www.wobege.de,WoBeGe Wohnbauten- und Beteiligungsgesellschaft mbH,Berlin-Johannisthal,Winckelmannstr. 3-5,12487,info@wobege.de
http://www.wobege.de,WoBeGe Wohnbauten- und Beteiligungsgesellschaft mbH,Berlin-Johannisthal,Winckelmannstr. 3-5,12487,info@wobege.de
http://www.wobege.de,WoBeGe Wohnbauten- und Beteiligungsgesellschaft mbH,Berlin-Johannisthal,Winckelmannstr. 3-5,12487,info@wobege.de
http://www.wobege.de,WoBeGe mbH,Berlin-Johannisthal,Winckelmannstr. 3-5,12487,info@wobege.de
http://www.wobege.de,WoBeGe mbH,Berlin-Johannisthal,Winckelmannstr. 3-5,12487,info@wobege.de
http://www.gewobe.de/,gewobe Wohnungswirtschaftliche Beteiligungsgesellschaft mbH Immobilien,Berlin-Tiergarten,Potsdamer Str. 60,10785,
,Jahn Andreas Immobilienbüro,Berlin-Weißensee,Langhansstr. 123,13086,
http://www.dgwag.de,DGW Deutsche Grundwert AG,Berlin-Marzahn,Allee der Kosmonauten 28A,12681,
http://www.dgwag.de,DGW Deutsche Grundwert AG,Berlin-Marzahn,Allee der Kosmonauten 28A,12681,
,KOTWIL GmbH Immobilienverwaltung,Berlin-Charlottenburg,Fasanenstr. 15,10623,
,Rokeach & Süsskind,Berlin-Wilmersdorf,Sigmaringer Str. 13,10713,
